[
  {
    "street": "131B Mount Keira Road",
    "suburb": "WEST WOLLONGONG",
    "state": "NSW",
    "postcode": "2500",
    "weekly_rent": 1400.0,
    "photo": [],
    "bedrooms": 4,
    "bathrooms": 2,
    "parking_spaces": 2,
    "property_type": "Duplex"
  },
  {
    "street": "6A Mianga Crescent",
    "suburb": "UNANDERRA",
    "state": "NSW",
    "postcode": "2526",
    "weekly_rent": 850.0,
    "photo": [],
    "bedrooms": 4,
    "bathrooms": 2,
    "parking_spaces": 3,
    "property_type": "House"
  },
  {
    "street": "40/7 Regent Street",
    "suburb": "WOLLONGONG",
    "state": "NSW",
    "postcode": "2500",
    "weekly_rent": 650.0,
    "photo": [],
    "bedrooms": 2,
    "bathrooms": 1,
    "parking_spaces": 1,
    "property_type": "Apartment / Unit / Flat"
  },
  {
    "street": "23 Hercules Street",
    "suburb": "WOLLONGONG",
    "state": "NSW",
    "postcode": "2500",
    "weekly_rent": 750.0,
    "photo": [],
    "bedrooms": 3,
    "bathrooms": 1,
    "parking_spaces": 0,
    "property_type": "House"
  },
  {
    "street": "15 Billabong Avenue",
    "suburb": "DAPTO",
    "state": "NSW",
    "postcode": "2530",
    "weekly_rent": 610.0,
    "photo": [],
    "bedrooms": 4,
    "bathrooms": 1,
    "parking_spaces": 2,
    "property_type": "House"
  },
  {
    "street": "1 Fairfax Road",
    "suburb": "WARRAWONG",
    "state": "NSW",
    "postcode": "2502",
    "weekly_rent": 850.0,
    "photo": [],
    "bedrooms": 6,
    "bathrooms": 2,
    "parking_spaces": 2,
    "property_type": "House"
  },
  {
    "street": "B903/31 Crown Street",
    "suburb": "WOLLONGONG",
    "state": "NSW",
    "postcode": "2500",
    "weekly_rent": 775.0,
    "photo": [],
    "bedrooms": 2,
    "bathrooms": 2,
    "parking_spaces": 2,
    "property_type": "Apartment / Unit / Flat"
  },
  {
    "street": "4/32 Mayfield Circuit",
    "suburb": "ALBION PARK",
    "state": "NSW",
    "postcode": "2527",
    "weekly_rent": 580.0,
    "photo": [],
    "bedrooms": 3,
    "bathrooms": 1,
    "parking_spaces": 1,
    "property_type": "Villa"
  },
  {
    "street": "205/15 Railway Parade",
    "suburb": "WOLLONGONG",
    "state": "NSW",
    "postcode": "2500",
    "weekly_rent": 720.0,
    "photo": [],
    "bedrooms": 2,
    "bathrooms": 2,
    "parking_spaces": 1,
    "property_type": "Apartment / Unit / Flat"
  },
  {
    "street": "48A Upland Chase",
    "suburb": "ALBION PARK",
    "state": "NSW",
    "postcode": "2527",
    "weekly_rent": 820.0,
    "photo": [],
    "bedrooms": 4,
    "bathrooms": 3,
    "parking_spaces": 2,
    "property_type": "House"
  },
  {
    "street": "6/100 Towradgi Road",
    "suburb": "TOWRADGI",
    "state": "NSW",
    "postcode": "2518",
    "weekly_rent": 670.0,
    "photo": [],
    "bedrooms": 3,
    "bathrooms": 2,
    "parking_spaces": 1,
    "property_type": "Apartment / Unit / Flat"
  },
  {
    "street": "5/4 Alfred Street",
    "suburb": "WOONONA",
    "state": "NSW",
    "postcode": "2517",
    "weekly_rent": 480.0,
    "photo": [],
    "bedrooms": 2,
    "bathrooms": 1,
    "parking_spaces": 1,
    "property_type": "Townhouse"
  },
  {
    "street": "403/16 Belmore Street",
    "suburb": "WOLLONGONG",
    "state": "NSW",
    "postcode": "2500",
    "weekly_rent": 750.0,
    "photo": [],
    "bedrooms": 2,
    "bathrooms": 2,
    "parking_spaces": 1,
    "property_type": "Apartment / Unit / Flat"
  },
  {
    "street": "26 Yalunga Street",
    "suburb": "DAPTO",
    "state": "NSW",
    "postcode": "2530",
    "weekly_rent": 450.0,
    "photo": [],
    "bedrooms": 3,
    "bathrooms": 1,
    "parking_spaces": 1,
    "property_type": "House"
  },
  {
    "street": "3/6-12 Hindmarsh Avenue",
    "suburb": "NORTH WOLLONGONG",
    "state": "NSW",
    "postcode": "2500",
    "weekly_rent": 425.0,
    "photo": [],
    "bedrooms": 2,
    "bathrooms": 1,
    "parking_spaces": 1,
    "property_type": "Apartment / Unit / Flat"
  },
  {
    "street": "1/35 Osborne Street",
    "suburb": "WOLLONGONG",
    "state": "NSW",
    "postcode": "2500",
    "weekly_rent": 480.0,
    "photo": [],
    "bedrooms": 2,
    "bathrooms": 1,
    "parking_spaces": 1,
    "property_type": "Apartment / Unit / Flat"
  },
  {
    "street": "3/57 Corrimal Street",
    "suburb": "WOLLONGONG",
    "state": "NSW",
    "postcode": "2500",
    "weekly_rent": 600.0,
    "photo": [],
    "bedrooms": 2,
    "bathrooms": 1,
    "parking_spaces": 1,
    "property_type": "House"
  },
  {
    "street": "302/26 Young Street",
    "suburb": "WOLLONGONG",
    "state": "NSW",
    "postcode": "2500",
    "weekly_rent": 740.0,
    "photo": [],
    "bedrooms": 2,
    "bathrooms": 2,
    "parking_spaces": 1,
    "property_type": "Apartment / Unit / Flat"
  },
  {
    "street": "2/128A Wentworth Street",
    "suburb": "PORT KEMBLA",
    "state": "NSW",
    "postcode": "2505",
    "weekly_rent": 390.0,
    "photo": [],
    "bedrooms": 1,
    "bathrooms": 1,
    "parking_spaces": 1,
    "property_type": "Apartment / Unit / Flat"
  },
  {
    "street": "41 Veronica Street",
    "suburb": "WARILLA",
    "state": "NSW",
    "postcode": "2528",
    "weekly_rent": 700.0,
    "photo": [],
    "bedrooms": 4,
    "bathrooms": 1,
    "parking_spaces": 1,
    "property_type": "Semi-detached"
  },
  {
    "street": "43 Jerematta Street",
    "suburb": "DAPTO",
    "state": "NSW",
    "postcode": "2530",
    "weekly_rent": 600.0,
    "photo": [],
    "bedrooms": 3,
    "bathrooms": 1,
    "parking_spaces": 1,
    "property_type": "House"
  },
  {
    "street": "5/10 Reserve Street",
    "suburb": "WEST WOLLONGONG",
    "state": "NSW",
    "postcode": "2500",
    "weekly_rent": 520.0,
    "photo": [],
    "bedrooms": 2,
    "bathrooms": 1,
    "parking_spaces": 1,
    "property_type": "Apartment / Unit / Flat"
  },
  {
    "street": "3/27 Aldridge Avenue",
    "suburb": "EAST CORRIMAL",
    "state": "NSW",
    "postcode": "2518",
    "weekly_rent": 390.0,
    "photo": [],
    "bedrooms": 1,
    "bathrooms": 1,
    "parking_spaces": 0,
    "property_type": "Apartment / Unit / Flat"
  },
  {
    "street": "19/19 Atchison Street",
    "suburb": "WOLLONGONG",
    "state": "NSW",
    "postcode": "2500",
    "weekly_rent": 615.0,
    "photo": [],
    "bedrooms": 2,
    "bathrooms": 1,
    "parking_spaces": 1,
    "property_type": "Apartment / Unit / Flat"
  },
  {
    "street": "99 Robsons Road",
    "suburb": "WEST WOLLONGONG",
    "state": "NSW",
    "postcode": "2500",
    "weekly_rent": 700.0,
    "photo": [],
    "bedrooms": 4,
    "bathrooms": 1,
    "parking_spaces": 1,
    "property_type": "House"
  },
  {
    "street": "21 Malcolm Ave",
    "suburb": "CRINGILA",
    "state": "NSW",
    "postcode": "2502",
    "weekly_rent": 570.0,
    "photo": [],
    "bedrooms": 3,
    "bathrooms": 1,
    "parking_spaces": 0,
    "property_type": "House"
  },
  {
    "street": "46 Tuggerah Circuit",
    "suburb": "FLINDERS",
    "state": "NSW",
    "postcode": "2529",
    "weekly_rent": 680.0,
    "photo": [],
    "bedrooms": 3,
    "bathrooms": 1,
    "parking_spaces": 1,
    "property_type": "House"
  },
  {
    "street": "9 Nannawilli Street",
    "suburb": "BERKELEY",
    "state": "NSW",
    "postcode": "2506",
    "weekly_rent": 650.0,
    "photo": [],
    "bedrooms": 3,
    "bathrooms": 1,
    "parking_spaces": 1,
    "property_type": "House"
  },
  {
    "street": "5 Sheffield Street",
    "suburb": "CRINGILA",
    "state": "NSW",
    "postcode": "2502",
    "weekly_rent": 870.0,
    "photo": [],
    "bedrooms": 4,
    "bathrooms": 2,
    "parking_spaces": 1,
    "property_type": "House"
  },
  {
    "street": "1804/15 Railway Parade",
    "suburb": "WOLLONGONG",
    "state": "NSW",
    "postcode": "2500",
    "weekly_rent": 790.0,
    "photo": [],
    "bedrooms": 2,
    "bathrooms": 2,
    "parking_spaces": 1,
    "property_type": "Apartment / Unit / Flat"
  },
  {
    "street": "604/15-19 Crown Street",
    "suburb": "WOLLONGONG",
    "state": "NSW",
    "postcode": "2500",
    "weekly_rent": 880.0,
    "photo": [],
    "bedrooms": 2,
    "bathrooms": 2,
    "parking_spaces": 1,
    "property_type": "Apartment / Unit / Flat"
  },
  {
    "street": "102/73 Flinders Street",
    "suburb": "WOLLONGONG",
    "state": "NSW",
    "postcode": "2500",
    "weekly_rent": 550.0,
    "photo": [],
    "bedrooms": 1,
    "bathrooms": 1,
    "parking_spaces": 1,
    "property_type": "Apartment / Unit / Flat"
  },
  {
    "street": "3/163 - 169 Keira Street",
    "suburb": "WOLLONGONG",
    "state": "NSW",
    "postcode": "2500",
    "weekly_rent": 480.0,
    "photo": [],
    "bedrooms": 2,
    "bathrooms": 1,
    "parking_spaces": 0,
    "property_type": "Apartment / Unit / Flat"
  },
  {
    "street": "805/35 Kenny Street",
    "suburb": "WOLLONGONG",
    "state": "NSW",
    "postcode": "2500",
    "weekly_rent": 1200.0,
    "photo": [],
    "bedrooms": 3,
    "bathrooms": 2,
    "parking_spaces": 2,
    "property_type": "Apartment / Unit / Flat"
  },
  {
    "street": "15 Eastern Avenue",
    "suburb": "MANGERTON",
    "state": "NSW",
    "postcode": "2500",
    "weekly_rent": 1000.0,
    "photo": [],
    "bedrooms": 4,
    "bathrooms": 3,
    "parking_spaces": 3,
    "property_type": "House"
  },
  {
    "street": "25 Fairloch Avenue",
    "suburb": "FARMBOROUGH HEIGHTS",
    "state": "NSW",
    "postcode": "2526",
    "weekly_rent": 680.0,
    "photo": [],
    "bedrooms": 3,
    "bathrooms": 1,
    "parking_spaces": 1,
    "property_type": "House"
  },
  {
    "street": "39 Cheshire Street",
    "suburb": "BERKELEY",
    "state": "NSW",
    "postcode": "2506",
    "weekly_rent": 820.0,
    "photo": [],
    "bedrooms": 4,
    "bathrooms": 3,
    "parking_spaces": 2,
    "property_type": "House"
  },
  {
    "street": "4 Jones Lane",
    "suburb": "THIRROUL",
    "state": "NSW",
    "postcode": "2515",
    "weekly_rent": 1300.0,
    "photo": [],
    "bedrooms": 3,
    "bathrooms": 1,
    "parking_spaces": 2,
    "property_type": "House"
  },
  {
    "street": "25 Olympic Boulevard",
    "suburb": "PORT KEMBLA",
    "state": "NSW",
    "postcode": "2505",
    "weekly_rent": 1020.0,
    "photo": [],
    "bedrooms": 4,
    "bathrooms": 2,
    "parking_spaces": 2,
    "property_type": "House"
  },
  {
    "street": "304/27 Flinders Street",
    "suburb": "WOLLONGONG",
    "state": "NSW",
    "postcode": "2500",
    "weekly_rent": 850.0,
    "photo": [],
    "bedrooms": 2,
    "bathrooms": 2,
    "parking_spaces": 1,
    "property_type": "Apartment / Unit / Flat"
  },
  {
    "street": "13/26 Victoria Street",
    "suburb": "WOLLONGONG",
    "state": "NSW",
    "postcode": "2500",
    "weekly_rent": 530.0,
    "photo": [],
    "bedrooms": 1,
    "bathrooms": 1,
    "parking_spaces": 1,
    "property_type": "Apartment / Unit / Flat"
  },
  {
    "street": "4/3 Underwood Street",
    "suburb": "CORRIMAL",
    "state": "NSW",
    "postcode": "2518",
    "weekly_rent": 630.0,
    "photo": [
      "https://rimh2.domainstatic.com.au/68pLHuQCfFVoVmTWNo7bPztqExs=/660x440/filters:format(jpeg):quality(80)/16407701_1_1_230405_042330-w800-h534"
    ],
    "bedrooms": 3,
    "bathrooms": 1,
    "parking_spaces": 1,
    "property_type": "Townhouse"
  },
  {
    "street": "404/17 Loftus Street",
    "suburb": "WOLLONGONG",
    "state": "NSW",
    "postcode": "2500",
    "weekly_rent": 700.0,
    "photo": [],
    "bedrooms": 2,
    "bathrooms": 2,
    "parking_spaces": 1,
    "property_type": "Apartment / Unit / Flat"
  },
  {
    "street": "1/6 Stanley Street",
    "suburb": "LAKE ILLAWARRA",
    "state": "NSW",
    "postcode": "2528",
    "weekly_rent": 560.0,
    "photo": [],
    "bedrooms": 2,
    "bathrooms": 1,
    "parking_spaces": 1,
    "property_type": "Townhouse"
  },
  {
    "street": "8 Junction Street",
    "suburb": "HELENSBURGH",
    "state": "NSW",
    "postcode": "2508",
    "weekly_rent": 620.0,
    "photo": [],
    "bedrooms": 2,
    "bathrooms": 1,
    "parking_spaces": 2,
    "property_type": "House"
  },
  {
    "street": "8 Heeterra Place",
    "suburb": "CORDEAUX HEIGHTS",
    "state": "NSW",
    "postcode": "2526",
    "weekly_rent": 890.0,
    "photo": [],
    "bedrooms": 3,
    "bathrooms": 2,
    "parking_spaces": 2,
    "property_type": "House"
  },
  {
    "street": "8 East Street",
    "suburb": "RUSSELL VALE",
    "state": "NSW",
    "postcode": "2517",
    "weekly_rent": 1150.0,
    "photo": [],
    "bedrooms": 5,
    "bathrooms": 2,
    "parking_spaces": 2,
    "property_type": "House"
  },
  {
    "street": "34 Railway Crescent",
    "suburb": "NORTH WOLLONGONG",
    "state": "NSW",
    "postcode": "2500",
    "weekly_rent": 620.0,
    "photo": [
      "https://rimh2.domainstatic.com.au/Mm4XpYbgbUSHKiXy7F8zg0Tf1UA=/660x440/filters:format(jpeg):quality(80)/17382598_1_1_250109_092807-w640-h400"
    ],
    "bedrooms": 3,
    "bathrooms": 1,
    "parking_spaces": 2,
    "property_type": "House"
  },
  {
    "street": "14 Elizabeth Circuit",
    "suburb": "FLINDERS",
    "state": "NSW",
    "postcode": "2529",
    "weekly_rent": 750.0,
    "photo": [],
    "bedrooms": 3,
    "bathrooms": 2,
    "parking_spaces": 2,
    "property_type": "House"
  },
  {
    "street": "54 Church Street",
    "suburb": "ALBION PARK",
    "state": "NSW",
    "postcode": "2527",
    "weekly_rent": 640.0,
    "photo": [],
    "bedrooms": 3,
    "bathrooms": 1,
    "parking_spaces": 1,
    "property_type": "House"
  },
  {
    "street": "1/40 Lawrence Hargrave Drive",
    "suburb": "AUSTINMER",
    "state": "NSW",
    "postcode": "2515",
    "weekly_rent": 600.0,
    "photo": [],
    "bedrooms": 1,
    "bathrooms": 1,
    "parking_spaces": 0,
    "property_type": "Apartment / Unit / Flat"
  },
  {
    "street": "6/41 Campbell Street",
    "suburb": "WOLLONGONG",
    "state": "NSW",
    "postcode": "2500",
    "weekly_rent": 630.0,
    "photo": [],
    "bedrooms": 2,
    "bathrooms": 1,
    "parking_spaces": 1,
    "property_type": "Apartment / Unit / Flat"
  },
  {
    "street": "6 Fifth Street",
    "suburb": "SCARBOROUGH",
    "state": "NSW",
    "postcode": "2515",
    "weekly_rent": 1000.0,
    "photo": [],
    "bedrooms": 3,
    "bathrooms": 2,
    "parking_spaces": 1,
    "property_type": "House"
  },
  {
    "street": "5/198 Gipps Rd",
    "suburb": "GWYNNEVILLE",
    "state": "NSW",
    "postcode": "2500",
    "weekly_rent": 775.0,
    "photo": [],
    "bedrooms": 3,
    "bathrooms": 2,
    "parking_spaces": 2,
    "property_type": "Apartment / Unit / Flat"
  },
  {
    "street": "89 Kiarama Avenue",
    "suburb": "KIAMA DOWNS",
    "state": "NSW",
    "postcode": "2533",
    "weekly_rent": 700.0,
    "photo": [],
    "bedrooms": 3,
    "bathrooms": 2,
    "parking_spaces": 2,
    "property_type": "House"
  },
  {
    "street": "801/26 Young Street",
    "suburb": "WOLLONGONG",
    "state": "NSW",
    "postcode": "2500",
    "weekly_rent": 900.0,
    "photo": [],
    "bedrooms": 3,
    "bathrooms": 2,
    "parking_spaces": 1,
    "property_type": "Apartment / Unit / Flat"
  },
  {
    "street": "14/214-220 Princes Highway",
    "suburb": "FAIRY MEADOW",
    "state": "NSW",
    "postcode": "2519",
    "weekly_rent": 535.0,
    "photo": [],
    "bedrooms": 2,
    "bathrooms": 2,
    "parking_spaces": 1,
    "property_type": "Apartment / Unit / Flat"
  },
  {
    "street": "2/19 Kemblawarra Road",
    "suburb": "PORT KEMBLA",
    "state": "NSW",
    "postcode": "2505",
    "weekly_rent": 400.0,
    "photo": [],
    "bedrooms": 2,
    "bathrooms": 1,
    "parking_spaces": 1,
    "property_type": "Apartment / Unit / Flat"
  },
  {
    "street": "4/18 New Dapto Rd",
    "suburb": "WOLLONGONG",
    "state": "NSW",
    "postcode": "2500",
    "weekly_rent": 625.0,
    "photo": [],
    "bedrooms": 2,
    "bathrooms": 1,
    "parking_spaces": 1,
    "property_type": "Townhouse"
  },
  {
    "street": "8 Kurrawa Crescent",
    "suburb": "KOONAWARRA",
    "state": "NSW",
    "postcode": "2530",
    "weekly_rent": 580.0,
    "photo": [],
    "bedrooms": 3,
    "bathrooms": 1,
    "parking_spaces": 1,
    "property_type": "House"
  },
  {
    "street": "6/37 Edward Street",
    "suburb": "WOLLONGONG",
    "state": "NSW",
    "postcode": "2500",
    "weekly_rent": 450.0,
    "photo": [],
    "bedrooms": 1,
    "bathrooms": 1,
    "parking_spaces": 1,
    "property_type": "Apartment / Unit / Flat"
  },
  {
    "street": "23 Hooka Creek Road",
    "suburb": "BERKELEY",
    "state": "NSW",
    "postcode": "2506",
    "weekly_rent": 620.0,
    "photo": [],
    "bedrooms": 3,
    "bathrooms": 1,
    "parking_spaces": 1,
    "property_type": "House"
  },
  {
    "street": "28 Shellharbour Road",
    "suburb": "PORT KEMBLA",
    "state": "NSW",
    "postcode": "2505",
    "weekly_rent": 650.0,
    "photo": [],
    "bedrooms": 3,
    "bathrooms": 1,
    "parking_spaces": 2,
    "property_type": "House"
  },
  {
    "street": "1/3 Marne",
    "suburb": "PORT KEMBLA",
    "state": "NSW",
    "postcode": "2505",
    "weekly_rent": 390.0,
    "photo": [],
    "bedrooms": 1,
    "bathrooms": 1,
    "parking_spaces": 0,
    "property_type": "Apartment / Unit / Flat"
  },
  {
    "street": "Room 1/8 Binda Street",
    "suburb": "KEIRAVILLE",
    "state": "NSW",
    "postcode": "2500",
    "weekly_rent": 200.0,
    "photo": [],
    "bedrooms": 1,
    "bathrooms": 1,
    "parking_spaces": 0,
    "property_type": "House"
  },
  {
    "street": "3/30 Grey Street",
    "suburb": "KEIRAVILLE",
    "state": "NSW",
    "postcode": "2500",
    "weekly_rent": 860.0,
    "photo": [],
    "bedrooms": 4,
    "bathrooms": 2,
    "parking_spaces": 1,
    "property_type": "Townhouse"
  },
  {
    "street": "112A First Avenue North",
    "suburb": "WARRAWONG",
    "state": "NSW",
    "postcode": "2502",
    "weekly_rent": 510.0,
    "photo": [],
    "bedrooms": 2,
    "bathrooms": 1,
    "parking_spaces": 1,
    "property_type": "Apartment / Unit / Flat"
  },
  {
    "street": "5/48 Bourke Street",
    "suburb": "NORTH WOLLONGONG",
    "state": "NSW",
    "postcode": "2500",
    "weekly_rent": 500.0,
    "photo": [],
    "bedrooms": 2,
    "bathrooms": 1,
    "parking_spaces": 0,
    "property_type": "Apartment / Unit / Flat"
  },
  {
    "street": "30 Ryan Street",
    "suburb": "BALGOWNIE",
    "state": "NSW",
    "postcode": "2519",
    "weekly_rent": 850.0,
    "photo": [],
    "bedrooms": 4,
    "bathrooms": 2,
    "parking_spaces": 2,
    "property_type": "House"
  },
  {
    "street": "78 Iola Avenue",
    "suburb": "FARMBOROUGH HEIGHTS",
    "state": "NSW",
    "postcode": "2526",
    "weekly_rent": 700.0,
    "photo": [],
    "bedrooms": 2,
    "bathrooms": 1,
    "parking_spaces": 0,
    "property_type": "House"
  },
  {
    "street": "7/290-294 Crown Street",
    "suburb": "WOLLONGONG",
    "state": "NSW",
    "postcode": "2500",
    "weekly_rent": 540.0,
    "photo": [],
    "bedrooms": 2,
    "bathrooms": 1,
    "parking_spaces": 0,
    "property_type": "Apartment / Unit / Flat"
  },
  {
    "street": "9 Park Road",
    "suburb": "GERROA",
    "state": "NSW",
    "postcode": "2534",
    "weekly_rent": 900.0,
    "photo": [],
    "bedrooms": 5,
    "bathrooms": 2,
    "parking_spaces": 1,
    "property_type": "House"
  },
  {
    "street": "30 South Kiama Drive",
    "suburb": "KIAMA HEIGHTS",
    "state": "NSW",
    "postcode": "2533",
    "weekly_rent": 750.0,
    "photo": [],
    "bedrooms": 3,
    "bathrooms": 2,
    "parking_spaces": 0,
    "property_type": "House"
  },
  {
    "street": "8a Tallowa Street",
    "suburb": "TULLIMBAR",
    "state": "NSW",
    "postcode": "2527",
    "weekly_rent": 650.0,
    "photo": [],
    "bedrooms": 3,
    "bathrooms": 2,
    "parking_spaces": 1,
    "property_type": "Semi-detached"
  },
  {
    "street": "5/47 Thompson Street",
    "suburb": "WOONONA",
    "state": "NSW",
    "postcode": "2517",
    "weekly_rent": 515.0,
    "photo": [],
    "bedrooms": 2,
    "bathrooms": 1,
    "parking_spaces": 1,
    "property_type": "Apartment / Unit / Flat"
  },
  {
    "street": "4 Beach Street",
    "suburb": "MINNAMURRA",
    "state": "NSW",
    "postcode": "2533",
    "weekly_rent": 770.0,
    "photo": [],
    "bedrooms": 3,
    "bathrooms": 2,
    "parking_spaces": 1,
    "property_type": "House"
  },
  {
    "street": "1/14 Bland Street",
    "suburb": "KIAMA",
    "state": "NSW",
    "postcode": "2533",
    "weekly_rent": 800.0,
    "photo": [],
    "bedrooms": 3,
    "bathrooms": 2,
    "parking_spaces": 2,
    "property_type": "House"
  },
  {
    "street": "6/15 Hillcrest Street",
    "suburb": "WOLLONGONG",
    "state": "NSW",
    "postcode": "2500",
    "weekly_rent": 430.0,
    "photo": [],
    "bedrooms": 1,
    "bathrooms": 1,
    "parking_spaces": 0,
    "property_type": "Apartment / Unit / Flat"
  },
  {
    "street": "1501/10 Regent Street",
    "suburb": "WOLLONGONG",
    "state": "NSW",
    "postcode": "2500",
    "weekly_rent": 725.0,
    "photo": [],
    "bedrooms": 2,
    "bathrooms": 2,
    "parking_spaces": 1,
    "property_type": "Apartment / Unit / Flat"
  },
  {
    "street": "1 Buckland Street",
    "suburb": "FERNHILL",
    "state": "NSW",
    "postcode": "2519",
    "weekly_rent": 650.0,
    "photo": [],
    "bedrooms": 3,
    "bathrooms": 1,
    "parking_spaces": 2,
    "property_type": "House"
  },
  {
    "street": "505/51 Crown Street",
    "suburb": "WOLLONGONG",
    "state": "NSW",
    "postcode": "2500",
    "weekly_rent": 670.0,
    "photo": [],
    "bedrooms": 2,
    "bathrooms": 2,
    "parking_spaces": 1,
    "property_type": "Apartment / Unit / Flat"
  },
  {
    "street": "30B William Street",
    "suburb": "KEIRAVILLE",
    "state": "NSW",
    "postcode": "2500",
    "weekly_rent": 930.0,
    "photo": [],
    "bedrooms": 3,
    "bathrooms": 2,
    "parking_spaces": 2,
    "property_type": "Townhouse"
  },
  {
    "street": "6/25-27 Corrimal Street",
    "suburb": "WOLLONGONG",
    "state": "NSW",
    "postcode": "2500",
    "weekly_rent": 530.0,
    "photo": [],
    "bedrooms": 2,
    "bathrooms": 1,
    "parking_spaces": 1,
    "property_type": "Apartment / Unit / Flat"
  },
  {
    "street": "129 Fowlers Road",
    "suburb": "DAPTO",
    "state": "NSW",
    "postcode": "2530",
    "weekly_rent": 585.0,
    "photo": [],
    "bedrooms": 3,
    "bathrooms": 2,
    "parking_spaces": 1,
    "property_type": "House"
  },
  {
    "street": "12 Sophia Street",
    "suburb": "SHELLHARBOUR",
    "state": "NSW",
    "postcode": "2529",
    "weekly_rent": 700.0,
    "photo": [],
    "bedrooms": 3,
    "bathrooms": 1,
    "parking_spaces": 1,
    "property_type": "House"
  },
  {
    "street": "18/125 Lake Entrance Road",
    "suburb": "BARRACK HEIGHTS",
    "state": "NSW",
    "postcode": "2528",
    "weekly_rent": 500.0,
    "photo": [],
    "bedrooms": 2,
    "bathrooms": 1,
    "parking_spaces": 1,
    "property_type": "Apartment / Unit / Flat"
  },
  {
    "street": "47/73-83 Smith Street",
    "suburb": "WOLLONGONG",
    "state": "NSW",
    "postcode": "2500",
    "weekly_rent": 850.0,
    "photo": [],
    "bedrooms": 3,
    "bathrooms": 2,
    "parking_spaces": 4,
    "property_type": "Apartment / Unit / Flat"
  },
  {
    "street": "1/68 Gladstone Avenue",
    "suburb": "WOLLONGONG",
    "state": "NSW",
    "postcode": "2500",
    "weekly_rent": 750.0,
    "photo": [],
    "bedrooms": 4,
    "bathrooms": 1,
    "parking_spaces": 1,
    "property_type": "House"
  },
  {
    "street": "4/19 Railway Crescent",
    "suburb": "NORTH WOLLONGONG",
    "state": "NSW",
    "postcode": "2500",
    "weekly_rent": 520.0,
    "photo": [],
    "bedrooms": 2,
    "bathrooms": 1,
    "parking_spaces": 1,
    "property_type": "Apartment / Unit / Flat"
  },
  {
    "street": "3/7 Gilmore Street",
    "suburb": "WEST WOLLONGONG",
    "state": "NSW",
    "postcode": "2500",
    "weekly_rent": 650.0,
    "photo": [],
    "bedrooms": 2,
    "bathrooms": 1,
    "parking_spaces": 1,
    "property_type": "Townhouse"
  },
  {
    "street": "3/15 Underwood Street",
    "suburb": "CORRIMAL",
    "state": "NSW",
    "postcode": "2518",
    "weekly_rent": 630.0,
    "photo": [],
    "bedrooms": 3,
    "bathrooms": 2,
    "parking_spaces": 2,
    "property_type": "Townhouse"
  },
  {
    "street": "806/49-51 Denison Street",
    "suburb": "WOLLONGONG",
    "state": "NSW",
    "postcode": "2500",
    "weekly_rent": 720.0,
    "photo": [],
    "bedrooms": 2,
    "bathrooms": 2,
    "parking_spaces": 1,
    "property_type": "Apartment / Unit / Flat"
  },
  {
    "street": "176 Princes Hwy",
    "suburb": "UNANDERRA",
    "state": "NSW",
    "postcode": "2526",
    "weekly_rent": 625.0,
    "photo": [],
    "bedrooms": 3,
    "bathrooms": 1,
    "parking_spaces": 4,
    "property_type": "House"
  },
  {
    "street": "Unit 3(lot5)/479 Crown Street",
    "suburb": "WOLLONGONG",
    "state": "NSW",
    "postcode": "2500",
    "weekly_rent": 550.0,
    "photo": [],
    "bedrooms": 2,
    "bathrooms": 1,
    "parking_spaces": 1,
    "property_type": "Townhouse"
  },
  {
    "street": "58/7 Regent Street",
    "suburb": "WOLLONGONG",
    "state": "NSW",
    "postcode": "2500",
    "weekly_rent": 550.0,
    "photo": [],
    "bedrooms": 2,
    "bathrooms": 1,
    "parking_spaces": 1,
    "property_type": "Apartment / Unit / Flat"
  },
  {
    "street": "3 Harkness Ave",
    "suburb": "KEIRAVILLE",
    "state": "NSW",
    "postcode": "2500",
    "weekly_rent": 1050.0,
    "photo": [],
    "bedrooms": 5,
    "bathrooms": 2,
    "parking_spaces": 2,
    "property_type": "House"
  },
  {
    "street": "3 Bell Street",
    "suburb": "KEIRAVILLE",
    "state": "NSW",
    "postcode": "2500",
    "weekly_rent": 850.0,
    "photo": [],
    "bedrooms": 4,
    "bathrooms": 2,
    "parking_spaces": 2,
    "property_type": "House"
  },
  {
    "street": "111 Dunmore Road",
    "suburb": "SHELL COVE",
    "state": "NSW",
    "postcode": "2529",
    "weekly_rent": 760.0,
    "photo": [],
    "bedrooms": 3,
    "bathrooms": 2,
    "parking_spaces": 1,
    "property_type": "Duplex"
  },
  {
    "street": "2/32 Towradgi Rd",
    "suburb": "TOWRADGI",
    "state": "NSW",
    "postcode": "2518",
    "weekly_rent": 400.0,
    "photo": [],
    "bedrooms": 1,
    "bathrooms": 1,
    "parking_spaces": 1,
    "property_type": "Apartment / Unit / Flat"
  },
  {
    "street": "2/33 Payne Road",
    "suburb": "CORRIMAL",
    "state": "NSW",
    "postcode": "2518",
    "weekly_rent": 550.0,
    "photo": [
      "https://rimh2.domainstatic.com.au/KS_3dGQAAQritxEQ61HEoVl-740=/660x440/filters:format(jpeg):quality(80)/17385674_1_1_250112_113557-w800-h600"
    ],
    "bedrooms": 2,
    "bathrooms": 1,
    "parking_spaces": 1,
    "property_type": "Apartment / Unit / Flat"
  },
  {
    "street": "8A Piper Drive",
    "suburb": "DUNMORE",
    "state": "NSW",
    "postcode": "2529",
    "weekly_rent": 795.0,
    "photo": [],
    "bedrooms": 3,
    "bathrooms": 2,
    "parking_spaces": 2,
    "property_type": "Duplex"
  },
  {
    "street": "1/10 Hillcrest Street",
    "suburb": "WOLLONGONG",
    "state": "NSW",
    "postcode": "2500",
    "weekly_rent": 850.0,
    "photo": [],
    "bedrooms": 3,
    "bathrooms": 1,
    "parking_spaces": 2,
    "property_type": "Townhouse"
  },
  {
    "street": "12 Old Farm Road",
    "suburb": "HELENSBURGH",
    "state": "NSW",
    "postcode": "2508",
    "weekly_rent": 780.0,
    "photo": [],
    "bedrooms": 3,
    "bathrooms": 1,
    "parking_spaces": 2,
    "property_type": "House"
  },
  {
    "street": "1/97 Meadow Street",
    "suburb": "FERNHILL",
    "state": "NSW",
    "postcode": "2519",
    "weekly_rent": 825.0,
    "photo": [],
    "bedrooms": 4,
    "bathrooms": 2,
    "parking_spaces": 1,
    "property_type": "Semi-detached"
  },
  {
    "street": "11 Bundella Place",
    "suburb": "KOONAWARRA",
    "state": "NSW",
    "postcode": "2530",
    "weekly_rent": 700.0,
    "photo": [],
    "bedrooms": 4,
    "bathrooms": 2,
    "parking_spaces": 1,
    "property_type": "House"
  },
  {
    "street": "8 Schoolyard Place",
    "suburb": "WONGAWILLI",
    "state": "NSW",
    "postcode": "2530",
    "weekly_rent": 700.0,
    "photo": [],
    "bedrooms": 3,
    "bathrooms": 2,
    "parking_spaces": 1,
    "property_type": "Terrace"
  },
  {
    "street": "2/39 Douglas Road",
    "suburb": "TARRAWANNA",
    "state": "NSW",
    "postcode": "2518",
    "weekly_rent": 390.0,
    "photo": [],
    "bedrooms": 2,
    "bathrooms": 1,
    "parking_spaces": 2,
    "property_type": "Apartment / Unit / Flat"
  },
  {
    "street": "27 Porter Street",
    "suburb": "NORTH WOLLONGONG",
    "state": "NSW",
    "postcode": "2500",
    "weekly_rent": 680.0,
    "photo": [],
    "bedrooms": 3,
    "bathrooms": 1,
    "parking_spaces": 0,
    "property_type": "House"
  },
  {
    "street": "2/21 William Beach Rd",
    "suburb": "KANAHOOKA",
    "state": "NSW",
    "postcode": "2530",
    "weekly_rent": 0.0,
    "photo": [],
    "bedrooms": 2,
    "bathrooms": 1,
    "parking_spaces": 0,
    "property_type": "House"
  },
  {
    "street": "6 Cosgrove Avenue",
    "suburb": "KEIRAVILLE",
    "state": "NSW",
    "postcode": "2500",
    "weekly_rent": 800.0,
    "photo": [],
    "bedrooms": 4,
    "bathrooms": 2,
    "parking_spaces": 1,
    "property_type": "House"
  },
  {
    "street": "7B Jasmine Street",
    "suburb": "HORSLEY",
    "state": "NSW",
    "postcode": "2530",
    "weekly_rent": 920.0,
    "photo": [],
    "bedrooms": 4,
    "bathrooms": 3,
    "parking_spaces": 1,
    "property_type": "Townhouse"
  },
  {
    "street": "15B Saddleback Crescent",
    "suburb": "KEMBLA GRANGE",
    "state": "NSW",
    "postcode": "2526",
    "weekly_rent": 750.0,
    "photo": [],
    "bedrooms": 3,
    "bathrooms": 2,
    "parking_spaces": 1,
    "property_type": "House"
  },
  {
    "street": "2/29 Stafford Street",
    "suburb": "GERROA",
    "state": "NSW",
    "postcode": "2534",
    "weekly_rent": 550.0,
    "photo": [],
    "bedrooms": 2,
    "bathrooms": 1,
    "parking_spaces": 0,
    "property_type": "Duplex"
  },
  {
    "street": "2/40 Virginia Street",
    "suburb": "NORTH WOLLONGONG",
    "state": "NSW",
    "postcode": "2500",
    "weekly_rent": 780.0,
    "photo": [],
    "bedrooms": 3,
    "bathrooms": 1,
    "parking_spaces": 2,
    "property_type": "Apartment / Unit / Flat"
  },
  {
    "street": "42 Abercrombie Street",
    "suburb": "WEST WOLLONGONG",
    "state": "NSW",
    "postcode": "2500",
    "weekly_rent": 600.0,
    "photo": [],
    "bedrooms": 3,
    "bathrooms": 1,
    "parking_spaces": 1,
    "property_type": "Semi-detached"
  },
  {
    "street": "26 Lombard Avenue",
    "suburb": "FAIRY MEADOW",
    "state": "NSW",
    "postcode": "2519",
    "weekly_rent": 940.0,
    "photo": [],
    "bedrooms": 4,
    "bathrooms": 2,
    "parking_spaces": 2,
    "property_type": "House"
  },
  {
    "street": "7 Roberts Avenue",
    "suburb": "BARRACK HEIGHTS",
    "state": "NSW",
    "postcode": "2528",
    "weekly_rent": 620.0,
    "photo": [],
    "bedrooms": 3,
    "bathrooms": 1,
    "parking_spaces": 1,
    "property_type": "House"
  },
  {
    "street": "1/185 Princes Highway",
    "suburb": "ALBION PARK RAIL",
    "state": "NSW",
    "postcode": "2527",
    "weekly_rent": 470.0,
    "photo": [],
    "bedrooms": 3,
    "bathrooms": 1,
    "parking_spaces": 0,
    "property_type": "House"
  },
  {
    "street": "25 Sheffield Street",
    "suburb": "CRINGILA",
    "state": "NSW",
    "postcode": "2502",
    "weekly_rent": 500.0,
    "photo": [],
    "bedrooms": 2,
    "bathrooms": 1,
    "parking_spaces": 1,
    "property_type": "House"
  },
  {
    "street": "7/6-12 Hindmarsh Avenue",
    "suburb": "NORTH WOLLONGONG",
    "state": "NSW",
    "postcode": "2500",
    "weekly_rent": 550.0,
    "photo": [],
    "bedrooms": 2,
    "bathrooms": 1,
    "parking_spaces": 1,
    "property_type": "Apartment / Unit / Flat"
  },
  {
    "street": "122 Church Street",
    "suburb": "WOLLONGONG",
    "state": "NSW",
    "postcode": "2500",
    "weekly_rent": 900.0,
    "photo": [
      "https://rimh2.domainstatic.com.au/Sv0BCAwCrz4VosHknDX2n_yLVHY=/660x440/filters:format(jpeg):quality(80)/16367675_8_1_230310_031450-w1037-h770"
    ],
    "bedrooms": 3,
    "bathrooms": 1,
    "parking_spaces": 9,
    "property_type": "House"
  },
  {
    "street": "4/6-8 Pleasant Avenue",
    "suburb": "NORTH WOLLONGONG",
    "state": "NSW",
    "postcode": "2500",
    "weekly_rent": 985.0,
    "photo": [
      "https://rimh2.domainstatic.com.au/zMiLdmuy4jGh_7Iqo8PL-1ykRTw=/660x440/filters:format(jpeg):quality(80)/14422580_20_1_240509_051303-w800-h600"
    ],
    "bedrooms": 2,
    "bathrooms": 2,
    "parking_spaces": 2,
    "property_type": "Apartment / Unit / Flat"
  },
  {
    "street": "2/2-4 Bean Street",
    "suburb": "THIRROUL",
    "state": "NSW",
    "postcode": "2515",
    "weekly_rent": 780.0,
    "photo": [
      "https://rimh2.domainstatic.com.au/12sNAvTtpMY7dpW_0QR744d3uq8=/660x440/filters:format(jpeg):quality(80)/17385523_1_1_250112_105512-w1339-h883"
    ],
    "bedrooms": 2,
    "bathrooms": 1,
    "parking_spaces": 2,
    "property_type": "House"
  },
  {
    "street": "33/7 Regent Street",
    "suburb": "WOLLONGONG",
    "state": "NSW",
    "postcode": "2500",
    "weekly_rent": 800.0,
    "photo": [
      "https://rimh2.domainstatic.com.au/ebefL_3caRdaRcRiVN19Ae5nGgk=/660x440/filters:format(jpeg):quality(80)/17379177_1_1_250108_042923-w1352-h868"
    ],
    "bedrooms": 3,
    "bathrooms": 1,
    "parking_spaces": 1,
    "property_type": "House"
  },
  {
    "street": "4/33 Rawlinson Street",
    "suburb": "WOLLONGONG",
    "state": "NSW",
    "postcode": "2500",
    "weekly_rent": 850.0,
    "photo": [
      "https://rimh2.domainstatic.com.au/-AFw40NOVYX5lCNQhZqZOJzI9R8=/660x440/filters:format(jpeg):quality(80)/16567477_1_1_230717_045704-w1024-h683"
    ],
    "bedrooms": 3,
    "bathrooms": 2,
    "parking_spaces": 1,
    "property_type": "Townhouse"
  },
  {
    "street": "13 Cobargo Street",
    "suburb": "TULLIMBAR",
    "state": "NSW",
    "postcode": "2527",
    "weekly_rent": 790.0,
    "photo": [
      "https://rimh2.domainstatic.com.au/EiLh4WDrTezZf0fa1x4qMVZ8C4Y=/660x440/filters:format(jpeg):quality(80)/16951679_1_1_240403_104230-w3966-h2645"
    ],
    "bedrooms": 4,
    "bathrooms": 2,
    "parking_spaces": 2,
    "property_type": "House"
  },
  {
    "street": "7 Malcolm Avenue",
    "suburb": "CRINGILA",
    "state": "NSW",
    "postcode": "2502",
    "weekly_rent": 560.0,
    "photo": [
      "https://rimh2.domainstatic.com.au/W5USY7hpBXaw3X-2tgdtFj_WIIg=/660x440/filters:format(jpeg):quality(80)/17374775_1_1_250106_115224-w788-h584"
    ],
    "bedrooms": 3,
    "bathrooms": 1,
    "parking_spaces": 1,
    "property_type": "House"
  },
  {
    "street": "3/6A Milne Crescent",
    "suburb": "CONISTON",
    "state": "NSW",
    "postcode": "2500",
    "weekly_rent": 610.0,
    "photo": [
      "https://rimh2.domainstatic.com.au/RbuWJMnaobjERfFfxhriPuXzvGU=/660x440/filters:format(jpeg):quality(80)/16287799_1_1_230120_011435-w3965-h2643"
    ],
    "bedrooms": 2,
    "bathrooms": 1,
    "parking_spaces": 1,
    "property_type": "Townhouse"
  },
  {
    "street": "1/13 Hercules Street",
    "suburb": "WOLLONGONG",
    "state": "NSW",
    "postcode": "2500",
    "weekly_rent": 700.0,
    "photo": [
      "https://rimh2.domainstatic.com.au/MlRgbS5Ie_B4uPEJeA0h9rcJ2d8=/660x440/filters:format(jpeg):quality(80)/16521555_10_1_230619_024001-w1841-h1232"
    ],
    "bedrooms": 3,
    "bathrooms": 1,
    "parking_spaces": 2,
    "property_type": "Apartment / Unit / Flat"
  },
  {
    "street": "17/10 Thomas Street",
    "suburb": "WOLLONGONG",
    "state": "NSW",
    "postcode": "2500",
    "weekly_rent": 630.0,
    "photo": [
      "https://rimh2.domainstatic.com.au/WgC6PBbnKfz6q6uTv9051m12dsk=/660x440/filters:format(jpeg):quality(80)/17368867_1_1_250103_120720-w2420-h1816"
    ],
    "bedrooms": 2,
    "bathrooms": 2,
    "parking_spaces": 1,
    "property_type": "Apartment / Unit / Flat"
  },
  {
    "street": "9 Surf Rd",
    "suburb": "SHELLHARBOUR",
    "state": "NSW",
    "postcode": "2529",
    "weekly_rent": 1100.0,
    "photo": [
      "https://rimh2.domainstatic.com.au/ng6owkZkAaMGtJv0GvTynzU2BG8=/660x440/filters:format(jpeg):quality(80)/17368497_1_1_250102_084340-w800-h600"
    ],
    "bedrooms": 4,
    "bathrooms": 2,
    "parking_spaces": 2,
    "property_type": "House"
  },
  {
    "street": "42 Greene Street",
    "suburb": "WARRAWONG",
    "state": "NSW",
    "postcode": "2502",
    "weekly_rent": 520.0,
    "photo": [
      "https://rimh2.domainstatic.com.au/axa79oNib2yG87RcGQwj5LOTsQQ=/660x440/filters:format(jpeg):quality(80)/13241781_6_1_190521_041032-w800-h600"
    ],
    "bedrooms": 2,
    "bathrooms": 1,
    "parking_spaces": 1,
    "property_type": "House"
  },
  {
    "street": "56 Hopewood Crescent",
    "suburb": "FAIRY MEADOW",
    "state": "NSW",
    "postcode": "2519",
    "weekly_rent": 750.0,
    "photo": [
      "https://rimh2.domainstatic.com.au/15Wqtu7UbU5z0QoaJPVo4_0END0=/660x440/filters:format(jpeg):quality(80)/2019630128_1_1_241112_041502-w3200-h2133"
    ],
    "bedrooms": 3,
    "bathrooms": 1,
    "parking_spaces": 1,
    "property_type": "House"
  },
  {
    "street": "20 Watergum Way",
    "suburb": "WOONONA",
    "state": "NSW",
    "postcode": "2517",
    "weekly_rent": 900.0,
    "photo": [
      "https://rimh2.domainstatic.com.au/mSzfu4FseznBQpRAhHsTc20Dj2U=/660x440/filters:format(jpeg):quality(80)/17366685_1_1_250101_061311-w1004-h664"
    ],
    "bedrooms": 3,
    "bathrooms": 2,
    "parking_spaces": 2,
    "property_type": "House"
  },
  {
    "street": "1 Cowell Lane",
    "suburb": "COLEDALE",
    "state": "NSW",
    "postcode": "2515",
    "weekly_rent": 1200.0,
    "photo": [
      "https://rimh2.domainstatic.com.au/kDwdy18Xf0K-4KXAgVBjNmg21wI=/660x440/filters:format(jpeg):quality(80)/16812354_1_1_240103_034731-w1920-h1280"
    ],
    "bedrooms": 4,
    "bathrooms": 2,
    "parking_spaces": 1,
    "property_type": "House"
  },
  {
    "street": "38 Brigantine Drive",
    "suburb": "SHELL COVE",
    "state": "NSW",
    "postcode": "2529",
    "weekly_rent": 810.0,
    "photo": [
      "https://rimh2.domainstatic.com.au/0WxAbUO0UHYFhNH93aH6UqSjH2I=/660x440/filters:format(jpeg):quality(80)/16789613_1_1_231211_045614-w2417-h1611"
    ],
    "bedrooms": 3,
    "bathrooms": 2,
    "parking_spaces": 2,
    "property_type": "House"
  },
  {
    "street": "5 Annesley Ave",
    "suburb": "STANWELL TOPS",
    "state": "NSW",
    "postcode": "2508",
    "weekly_rent": 900.0,
    "photo": [
      "https://rimh2.domainstatic.com.au/JofQsB2T9lWNllRvmF_L_9DZGns=/660x440/filters:format(jpeg):quality(80)/17382004_1_1_250109_090429-w6790-h4527"
    ],
    "bedrooms": 4,
    "bathrooms": 2,
    "parking_spaces": 1,
    "property_type": "House"
  },
  {
    "street": "46 Kirton Road",
    "suburb": "AUSTINMER",
    "state": "NSW",
    "postcode": "2515",
    "weekly_rent": 550.0,
    "photo": [
      "https://rimh2.domainstatic.com.au/sB0dYEI54a4Yygxy7gXQ5FQbS_Y=/660x440/filters:format(jpeg):quality(80)/16993630_1_1_240501_052450-w1920-h1280"
    ],
    "bedrooms": 3,
    "bathrooms": 1,
    "parking_spaces": 0,
    "property_type": "House"
  },
  {
    "street": "24 Asquith Street",
    "suburb": "AUSTINMER",
    "state": "NSW",
    "postcode": "2515",
    "weekly_rent": 950.0,
    "photo": [
      "https://rimh2.domainstatic.com.au/inObh1OkdHfBYXp5M-8v8jPnWn8=/660x440/filters:format(jpeg):quality(80)/2019517585_1_1_240925_060245-w1920-h1280"
    ],
    "bedrooms": 4,
    "bathrooms": 2,
    "parking_spaces": 2,
    "property_type": "House"
  },
  {
    "street": "5/16 Ocean Street",
    "suburb": "THIRROUL",
    "state": "NSW",
    "postcode": "2515",
    "weekly_rent": 680.0,
    "photo": [
      "https://rimh2.domainstatic.com.au/wpvjAdUdfuU6_UppluO_raeEILo=/660x440/filters:format(jpeg):quality(80)/2019367469_6_1_240717_014428-w1920-h1279"
    ],
    "bedrooms": 2,
    "bathrooms": 1,
    "parking_spaces": 1,
    "property_type": "Apartment / Unit / Flat"
  },
  {
    "street": "1/4 Central Avenue",
    "suburb": "OAK FLATS",
    "state": "NSW",
    "postcode": "2529",
    "weekly_rent": 620.0,
    "photo": [],
    "bedrooms": 3,
    "bathrooms": 2,
    "parking_spaces": 1,
    "property_type": "Townhouse"
  },
  {
    "street": "3/77 Duncan Street",
    "suburb": "BALGOWNIE",
    "state": "NSW",
    "postcode": "2519",
    "weekly_rent": 500.0,
    "photo": [],
    "bedrooms": 2,
    "bathrooms": 1,
    "parking_spaces": 1,
    "property_type": "Apartment / Unit / Flat"
  },
  {
    "street": "174A Princes Highway",
    "suburb": "FAIRY MEADOW",
    "state": "NSW",
    "postcode": "2519",
    "weekly_rent": 580.0,
    "photo": [],
    "bedrooms": 3,
    "bathrooms": 2,
    "parking_spaces": 1,
    "property_type": "Apartment / Unit / Flat"
  },
  {
    "street": "7/48 Bourke Street",
    "suburb": "NORTH WOLLONGONG",
    "state": "NSW",
    "postcode": "2500",
    "weekly_rent": 550.0,
    "photo": [],
    "bedrooms": 2,
    "bathrooms": 1,
    "parking_spaces": 0,
    "property_type": "House"
  },
  {
    "street": "45 Captain Cook Drive",
    "suburb": "BARRACK HEIGHTS",
    "state": "NSW",
    "postcode": "2528",
    "weekly_rent": 700.0,
    "photo": [],
    "bedrooms": 4,
    "bathrooms": 1,
    "parking_spaces": 2,
    "property_type": "House"
  },
  {
    "street": "6/22 Gladstone Avenue",
    "suburb": "WOLLONGONG",
    "state": "NSW",
    "postcode": "2500",
    "weekly_rent": 680.0,
    "photo": [],
    "bedrooms": 2,
    "bathrooms": 2,
    "parking_spaces": 1,
    "property_type": "Apartment / Unit / Flat"
  },
  {
    "street": "4/110-112 Belinda Street",
    "suburb": "GERRINGONG",
    "state": "NSW",
    "postcode": "2534",
    "weekly_rent": 750.0,
    "photo": [],
    "bedrooms": 3,
    "bathrooms": 2,
    "parking_spaces": 0,
    "property_type": "Townhouse"
  },
  {
    "street": "32/22 Market Street",
    "suburb": "WOLLONGONG",
    "state": "NSW",
    "postcode": "2500",
    "weekly_rent": 900.0,
    "photo": [],
    "bedrooms": 3,
    "bathrooms": 2,
    "parking_spaces": 2,
    "property_type": "Apartment / Unit / Flat"
  },
  {
    "street": "4/28 Urunga Parade",
    "suburb": "WEST WOLLONGONG",
    "state": "NSW",
    "postcode": "2500",
    "weekly_rent": 480.0,
    "photo": [],
    "bedrooms": 2,
    "bathrooms": 1,
    "parking_spaces": 1,
    "property_type": "Apartment / Unit / Flat"
  },
  {
    "street": "1/21 Tarana Avenue",
    "suburb": "KANAHOOKA",
    "state": "NSW",
    "postcode": "2530",
    "weekly_rent": 570.0,
    "photo": [],
    "bedrooms": 2,
    "bathrooms": 1,
    "parking_spaces": 0,
    "property_type": "Block of units"
  },
  {
    "street": "18/24 Market Street",
    "suburb": "WOLLONGONG",
    "state": "NSW",
    "postcode": "2500",
    "weekly_rent": 520.0,
    "photo": [],
    "bedrooms": 2,
    "bathrooms": 1,
    "parking_spaces": 1,
    "property_type": "Apartment / Unit / Flat"
  },
  {
    "street": "6 Wonjandal Way",
    "suburb": "WONGAWILLI",
    "state": "NSW",
    "postcode": "2530",
    "weekly_rent": 700.0,
    "photo": [],
    "bedrooms": 3,
    "bathrooms": 2,
    "parking_spaces": 1,
    "property_type": "House"
  },
  {
    "street": "15 Susan Avenue",
    "suburb": "WARILLA",
    "state": "NSW",
    "postcode": "2528",
    "weekly_rent": 550.0,
    "photo": [],
    "bedrooms": 3,
    "bathrooms": 1,
    "parking_spaces": 2,
    "property_type": "House"
  },
  {
    "street": "1 Gerringulli Way",
    "suburb": "WONGAWILLI",
    "state": "NSW",
    "postcode": "2530",
    "weekly_rent": 750.0,
    "photo": [],
    "bedrooms": 3,
    "bathrooms": 2,
    "parking_spaces": 2,
    "property_type": "House"
  },
  {
    "street": "12/48 Smith Street",
    "suburb": "WOLLONGONG",
    "state": "NSW",
    "postcode": "2500",
    "weekly_rent": 550.0,
    "photo": [],
    "bedrooms": 2,
    "bathrooms": 1,
    "parking_spaces": 1,
    "property_type": "Apartment / Unit / Flat"
  },
  {
    "street": "4/33 Old Saddleback Road",
    "suburb": "KIAMA",
    "state": "NSW",
    "postcode": "2533",
    "weekly_rent": 690.0,
    "photo": [],
    "bedrooms": 2,
    "bathrooms": 2,
    "parking_spaces": 2,
    "property_type": "Villa"
  },
  {
    "street": "33 Osborne Street",
    "suburb": "GERRINGONG",
    "state": "NSW",
    "postcode": "2534",
    "weekly_rent": 850.0,
    "photo": [],
    "bedrooms": 5,
    "bathrooms": 1,
    "parking_spaces": 2,
    "property_type": "House"
  },
  {
    "street": "102 Fisher Street",
    "suburb": "OAK FLATS",
    "state": "NSW",
    "postcode": "2529",
    "weekly_rent": 600.0,
    "photo": [],
    "bedrooms": 3,
    "bathrooms": 1,
    "parking_spaces": 2,
    "property_type": "House"
  },
  {
    "street": "64 Francis Street",
    "suburb": "CORRIMAL",
    "state": "NSW",
    "postcode": "2518",
    "weekly_rent": 750.0,
    "photo": [],
    "bedrooms": 3,
    "bathrooms": 1,
    "parking_spaces": 1,
    "property_type": "House"
  },
  {
    "street": "13 Hassan Street",
    "suburb": "LAKE HEIGHTS",
    "state": "NSW",
    "postcode": "2502",
    "weekly_rent": 560.0,
    "photo": [],
    "bedrooms": 2,
    "bathrooms": 1,
    "parking_spaces": 0,
    "property_type": "House"
  },
  {
    "street": "5/1 The Avenue",
    "suburb": "BELLAMBI",
    "state": "NSW",
    "postcode": "2518",
    "weekly_rent": 500.0,
    "photo": [],
    "bedrooms": 2,
    "bathrooms": 1,
    "parking_spaces": 1,
    "property_type": "Apartment / Unit / Flat"
  },
  {
    "street": "24 Trinity Row",
    "suburb": "BULLI",
    "state": "NSW",
    "postcode": "2516",
    "weekly_rent": 2350.0,
    "photo": [],
    "bedrooms": 5,
    "bathrooms": 2,
    "parking_spaces": 2,
    "property_type": "House"
  },
  {
    "street": "36 Fern Street",
    "suburb": "GERRINGONG",
    "state": "NSW",
    "postcode": "2534",
    "weekly_rent": 800.0,
    "photo": [],
    "bedrooms": 4,
    "bathrooms": 1,
    "parking_spaces": 1,
    "property_type": "House"
  },
  {
    "street": "7 Sharpe Place",
    "suburb": "GERRINGONG",
    "state": "NSW",
    "postcode": "2534",
    "weekly_rent": 770.0,
    "photo": [],
    "bedrooms": 2,
    "bathrooms": 1,
    "parking_spaces": 0,
    "property_type": "House"
  },
  {
    "street": "4/9 Hillview Avenue",
    "suburb": "GWYNNEVILLE",
    "state": "NSW",
    "postcode": "2500",
    "weekly_rent": 440.0,
    "photo": [],
    "bedrooms": 2,
    "bathrooms": 1,
    "parking_spaces": 1,
    "property_type": "Apartment / Unit / Flat"
  },
  {
    "street": "26B Boronga Crescent",
    "suburb": "BERKELEY",
    "state": "NSW",
    "postcode": "2506",
    "weekly_rent": 750.0,
    "photo": [],
    "bedrooms": 4,
    "bathrooms": 2,
    "parking_spaces": 1,
    "property_type": "Townhouse"
  },
  {
    "street": "2/52 Peterborough Avenue",
    "suburb": "LAKE ILLAWARRA",
    "state": "NSW",
    "postcode": "2528",
    "weekly_rent": 520.0,
    "photo": [],
    "bedrooms": 2,
    "bathrooms": 2,
    "parking_spaces": 1,
    "property_type": "Townhouse"
  },
  {
    "street": "2 Solo Court",
    "suburb": "SHELL COVE",
    "state": "NSW",
    "postcode": "2529",
    "weekly_rent": 700.0,
    "photo": [],
    "bedrooms": 3,
    "bathrooms": 1,
    "parking_spaces": 1,
    "property_type": "Villa"
  },
  {
    "street": "13a Thornbury Avenue",
    "suburb": "UNANDERRA",
    "state": "NSW",
    "postcode": "2526",
    "weekly_rent": 800.0,
    "photo": [],
    "bedrooms": 4,
    "bathrooms": 2,
    "parking_spaces": 1,
    "property_type": "Duplex"
  },
  {
    "street": "27 Osage Street",
    "suburb": "HORSLEY",
    "state": "NSW",
    "postcode": "2530",
    "weekly_rent": 840.0,
    "photo": [],
    "bedrooms": 4,
    "bathrooms": 2,
    "parking_spaces": 2,
    "property_type": "House"
  },
  {
    "street": "26 White Cedar Circuit",
    "suburb": "HUNTLEY",
    "state": "NSW",
    "postcode": "2530",
    "weekly_rent": 900.0,
    "photo": [],
    "bedrooms": 4,
    "bathrooms": 2,
    "parking_spaces": 2,
    "property_type": "House"
  },
  {
    "street": "2/26 Rowland Avenue",
    "suburb": "WOLLONGONG",
    "state": "NSW",
    "postcode": "2500",
    "weekly_rent": 825.0,
    "photo": [],
    "bedrooms": 3,
    "bathrooms": 2,
    "parking_spaces": 2,
    "property_type": "Villa"
  },
  {
    "street": "312 Cowper Street",
    "suburb": "WARRAWONG",
    "state": "NSW",
    "postcode": "2502",
    "weekly_rent": 620.0,
    "photo": [],
    "bedrooms": 4,
    "bathrooms": 1,
    "parking_spaces": 1,
    "property_type": "House"
  },
  {
    "street": "307/1 Evelyn Court",
    "suburb": "SHELLHARBOUR CITY CENTRE",
    "state": "NSW",
    "postcode": "2529",
    "weekly_rent": 630.0,
    "photo": [],
    "bedrooms": 2,
    "bathrooms": 2,
    "parking_spaces": 2,
    "property_type": "Apartment / Unit / Flat"
  },
  {
    "street": "8a Carrington Street",
    "suburb": "BULLI",
    "state": "NSW",
    "postcode": "2516",
    "weekly_rent": 920.0,
    "photo": [],
    "bedrooms": 3,
    "bathrooms": 2,
    "parking_spaces": 2,
    "property_type": "Townhouse"
  },
  {
    "street": "73 Landy Drive",
    "suburb": "MOUNT WARRIGAL",
    "state": "NSW",
    "postcode": "2528",
    "weekly_rent": 690.0,
    "photo": [],
    "bedrooms": 3,
    "bathrooms": 2,
    "parking_spaces": 4,
    "property_type": "House"
  },
  {
    "street": "1/29 Weemala Crescent",
    "suburb": "KOONAWARRA",
    "state": "NSW",
    "postcode": "2530",
    "weekly_rent": 565.0,
    "photo": [],
    "bedrooms": 3,
    "bathrooms": 1,
    "parking_spaces": 1,
    "property_type": "Townhouse"
  },
  {
    "street": "13 Coronet Place",
    "suburb": "DAPTO",
    "state": "NSW",
    "postcode": "2530",
    "weekly_rent": 800.0,
    "photo": [],
    "bedrooms": 5,
    "bathrooms": 2,
    "parking_spaces": 1,
    "property_type": "House"
  },
  {
    "street": "21A Nimmitabel Street",
    "suburb": "TULLIMBAR",
    "state": "NSW",
    "postcode": "2527",
    "weekly_rent": 730.0,
    "photo": [],
    "bedrooms": 4,
    "bathrooms": 2,
    "parking_spaces": 2,
    "property_type": "House"
  },
  {
    "street": "21 St Ives Road",
    "suburb": "FLINDERS",
    "state": "NSW",
    "postcode": "2529",
    "weekly_rent": 760.0,
    "photo": [],
    "bedrooms": 3,
    "bathrooms": 2,
    "parking_spaces": 2,
    "property_type": "Duplex"
  },
  {
    "street": "C/31 Douglas Road",
    "suburb": "FERNHILL",
    "state": "NSW",
    "postcode": "2519",
    "weekly_rent": 200.0,
    "photo": [],
    "bedrooms": 1,
    "bathrooms": 1,
    "parking_spaces": 0,
    "property_type": "House"
  },
  {
    "street": "3 Broadridge Street",
    "suburb": "WOMBARRA",
    "state": "NSW",
    "postcode": "2515",
    "weekly_rent": 760.0,
    "photo": [],
    "bedrooms": 2,
    "bathrooms": 1,
    "parking_spaces": 0,
    "property_type": "House"
  },
  {
    "street": "3/14-16 Hercules Street",
    "suburb": "WOLLONGONG",
    "state": "NSW",
    "postcode": "2500",
    "weekly_rent": 685.0,
    "photo": [],
    "bedrooms": 2,
    "bathrooms": 1,
    "parking_spaces": 1,
    "property_type": "Apartment / Unit / Flat"
  },
  {
    "street": "5 Albert Street",
    "suburb": "LAKE ILLAWARRA",
    "state": "NSW",
    "postcode": "2528",
    "weekly_rent": 520.0,
    "photo": [],
    "bedrooms": 2,
    "bathrooms": 1,
    "parking_spaces": 1,
    "property_type": "House"
  },
  {
    "street": "4/6 Peterborough Avenue",
    "suburb": "LAKE ILLAWARRA",
    "state": "NSW",
    "postcode": "2528",
    "weekly_rent": 580.0,
    "photo": [],
    "bedrooms": 2,
    "bathrooms": 1,
    "parking_spaces": 1,
    "property_type": "Apartment / Unit / Flat"
  },
  {
    "street": "28 Stephanie Avenue",
    "suburb": "WARILLA",
    "state": "NSW",
    "postcode": "2528",
    "weekly_rent": 690.0,
    "photo": [],
    "bedrooms": 2,
    "bathrooms": 1,
    "parking_spaces": 1,
    "property_type": "Villa"
  },
  {
    "street": "61 Surfleet Place",
    "suburb": "KIAMA",
    "state": "NSW",
    "postcode": "2533",
    "weekly_rent": 775.0,
    "photo": [],
    "bedrooms": 3,
    "bathrooms": 2,
    "parking_spaces": 2,
    "property_type": "Duplex"
  },
  {
    "street": "11 McInerney Avenue",
    "suburb": "ALBION PARK",
    "state": "NSW",
    "postcode": "2527",
    "weekly_rent": 600.0,
    "photo": [],
    "bedrooms": 3,
    "bathrooms": 1,
    "parking_spaces": 1,
    "property_type": "House"
  },
  {
    "street": "36/214 Princes Highway",
    "suburb": "FAIRY MEADOW",
    "state": "NSW",
    "postcode": "2519",
    "weekly_rent": 500.0,
    "photo": [],
    "bedrooms": 1,
    "bathrooms": 1,
    "parking_spaces": 1,
    "property_type": "Apartment / Unit / Flat"
  },
  {
    "street": "3/37 Pur Pur Avenue",
    "suburb": "LAKE ILLAWARRA",
    "state": "NSW",
    "postcode": "2528",
    "weekly_rent": 500.0,
    "photo": [],
    "bedrooms": 2,
    "bathrooms": 1,
    "parking_spaces": 0,
    "property_type": "Apartment / Unit / Flat"
  },
  {
    "street": "62 Conway Crescent",
    "suburb": "BLACKBUTT",
    "state": "NSW",
    "postcode": "2529",
    "weekly_rent": 950.0,
    "photo": [],
    "bedrooms": 4,
    "bathrooms": 2,
    "parking_spaces": 2,
    "property_type": "House"
  },
  {
    "street": "20a Mangerton Road",
    "suburb": "WOLLONGONG",
    "state": "NSW",
    "postcode": "2500",
    "weekly_rent": 730.0,
    "photo": [],
    "bedrooms": 4,
    "bathrooms": 2,
    "parking_spaces": 1,
    "property_type": "Semi-detached"
  },
  {
    "street": "1/4 Forest Grove Dr",
    "suburb": "KANAHOOKA",
    "state": "NSW",
    "postcode": "2530",
    "weekly_rent": 650.0,
    "photo": [],
    "bedrooms": 3,
    "bathrooms": 2,
    "parking_spaces": 2,
    "property_type": "Townhouse"
  },
  {
    "street": "1/145 Central Avenue",
    "suburb": "OAK FLATS",
    "state": "NSW",
    "postcode": "2529",
    "weekly_rent": 480.0,
    "photo": [
      "https://rimh2.domainstatic.com.au/KD3BuPHsQaP3JP0VCdeFAp1DRWs=/660x440/filters:format(jpeg):quality(80)/16190917_1_1_221117_040753-w800-h600"
    ],
    "bedrooms": 2,
    "bathrooms": 1,
    "parking_spaces": 1,
    "property_type": "Apartment / Unit / Flat"
  },
  {
    "street": "2/17 Railway Crescent",
    "suburb": "NORTH WOLLONGONG",
    "state": "NSW",
    "postcode": "2500",
    "weekly_rent": 785.0,
    "photo": [],
    "bedrooms": 3,
    "bathrooms": 3,
    "parking_spaces": 2,
    "property_type": "Townhouse"
  },
  {
    "street": "24 Hilltop Avenue",
    "suburb": "WOLLONGONG",
    "state": "NSW",
    "postcode": "2500",
    "weekly_rent": 950.0,
    "photo": [],
    "bedrooms": 4,
    "bathrooms": 1,
    "parking_spaces": 2,
    "property_type": "House"
  },
  {
    "street": "1/26 Upland Chase",
    "suburb": "ALBION PARK",
    "state": "NSW",
    "postcode": "2527",
    "weekly_rent": 640.0,
    "photo": [],
    "bedrooms": 3,
    "bathrooms": 2,
    "parking_spaces": 2,
    "property_type": "Townhouse"
  },
  {
    "street": "2 Venn Street",
    "suburb": "BERKELEY",
    "state": "NSW",
    "postcode": "2506",
    "weekly_rent": 580.0,
    "photo": [
      "https://rimh2.domainstatic.com.au/LFVJLkAkMe8DpwOxoaulSubpP_U=/660x440/filters:format(jpeg):quality(80)/17126515_1_1_240723_054328-w896-h519"
    ],
    "bedrooms": 3,
    "bathrooms": 1,
    "parking_spaces": 1,
    "property_type": "House"
  },
  {
    "street": "20a Kurrawa Avenue",
    "suburb": "KIAMA DOWNS",
    "state": "NSW",
    "postcode": "2533",
    "weekly_rent": 770.0,
    "photo": [],
    "bedrooms": 3,
    "bathrooms": 2,
    "parking_spaces": 1,
    "property_type": "Townhouse"
  },
  {
    "street": "13 Pankhurst Avenue",
    "suburb": "FAIRY MEADOW",
    "state": "NSW",
    "postcode": "2519",
    "weekly_rent": 700.0,
    "photo": [
      "https://rimh2.domainstatic.com.au/KLGFMRnn0gi9fY9SRRQp5sQ33zs=/660x440/filters:format(jpeg):quality(80)/17366013_1_1_241230_084335-w1401-h978"
    ],
    "bedrooms": 3,
    "bathrooms": 1,
    "parking_spaces": 1,
    "property_type": "House"
  },
  {
    "street": "44 Risley Rd",
    "suburb": "FIGTREE",
    "state": "NSW",
    "postcode": "2525",
    "weekly_rent": 1100.0,
    "photo": [],
    "bedrooms": 5,
    "bathrooms": 3,
    "parking_spaces": 2,
    "property_type": "House"
  },
  {
    "street": "204/9-15 Railway Parade",
    "suburb": "WOLLONGONG",
    "state": "NSW",
    "postcode": "2500",
    "weekly_rent": 650.0,
    "photo": [],
    "bedrooms": 2,
    "bathrooms": 2,
    "parking_spaces": 1,
    "property_type": "Apartment / Unit / Flat"
  },
  {
    "street": "4 Tucker Avenue",
    "suburb": "BALGOWNIE",
    "state": "NSW",
    "postcode": "2519",
    "weekly_rent": 630.0,
    "photo": [],
    "bedrooms": 3,
    "bathrooms": 1,
    "parking_spaces": 2,
    "property_type": "House"
  },
  {
    "street": "1/20 Daisy St",
    "suburb": "FAIRY MEADOW",
    "state": "NSW",
    "postcode": "2519",
    "weekly_rent": 600.0,
    "photo": [],
    "bedrooms": 3,
    "bathrooms": 1,
    "parking_spaces": 1,
    "property_type": "Townhouse"
  },
  {
    "street": "11 Pindari Street",
    "suburb": "KEIRAVILLE",
    "state": "NSW",
    "postcode": "2500",
    "weekly_rent": 950.0,
    "photo": [],
    "bedrooms": 4,
    "bathrooms": 2,
    "parking_spaces": 1,
    "property_type": "House"
  },
  {
    "street": "11 Porter St",
    "suburb": "NORTH WOLLONGONG",
    "state": "NSW",
    "postcode": "2500",
    "weekly_rent": 680.0,
    "photo": [],
    "bedrooms": 3,
    "bathrooms": 1,
    "parking_spaces": 1,
    "property_type": "House"
  },
  {
    "street": "85 Shellharbour Road",
    "suburb": "WARILLA",
    "state": "NSW",
    "postcode": "2528",
    "weekly_rent": 415.0,
    "photo": [],
    "bedrooms": 1,
    "bathrooms": 1,
    "parking_spaces": 0,
    "property_type": "Studio"
  },
  {
    "street": "4/48 Badgery Street",
    "suburb": "ALBION PARK",
    "state": "NSW",
    "postcode": "2527",
    "weekly_rent": 700.0,
    "photo": [],
    "bedrooms": 3,
    "bathrooms": 2,
    "parking_spaces": 2,
    "property_type": "Townhouse"
  },
  {
    "street": "11/5-9 Keira Street",
    "suburb": "TARRAWANNA",
    "state": "NSW",
    "postcode": "2518",
    "weekly_rent": 650.0,
    "photo": [],
    "bedrooms": 3,
    "bathrooms": 1,
    "parking_spaces": 1,
    "property_type": "Villa"
  },
  {
    "street": "1/33 Cobblers Ave",
    "suburb": "FIGTREE",
    "state": "NSW",
    "postcode": "2525",
    "weekly_rent": 600.0,
    "photo": [],
    "bedrooms": 3,
    "bathrooms": 1,
    "parking_spaces": 1,
    "property_type": "Villa"
  },
  {
    "street": "3 Arnold Crescent",
    "suburb": "LAKE HEIGHTS",
    "state": "NSW",
    "postcode": "2502",
    "weekly_rent": 1250.0,
    "photo": [],
    "bedrooms": 3,
    "bathrooms": 4,
    "parking_spaces": 2,
    "property_type": "House"
  },
  {
    "street": "35 Bellevue Road",
    "suburb": "FIGTREE",
    "state": "NSW",
    "postcode": "2525",
    "weekly_rent": 800.0,
    "photo": [],
    "bedrooms": 4,
    "bathrooms": 2,
    "parking_spaces": 2,
    "property_type": "House"
  },
  {
    "street": "5 Sidney Street",
    "suburb": "GWYNNEVILLE",
    "state": "NSW",
    "postcode": "2500",
    "weekly_rent": 690.0,
    "photo": [],
    "bedrooms": 3,
    "bathrooms": 1,
    "parking_spaces": 1,
    "property_type": "House"
  },
  {
    "street": "1/42 Rowland Avenue",
    "suburb": "WOLLONGONG",
    "state": "NSW",
    "postcode": "2500",
    "weekly_rent": 500.0,
    "photo": [],
    "bedrooms": 2,
    "bathrooms": 1,
    "parking_spaces": 1,
    "property_type": "Apartment / Unit / Flat"
  },
  {
    "street": "17A Weemala Crescent",
    "suburb": "KOONAWARRA",
    "state": "NSW",
    "postcode": "2530",
    "weekly_rent": 500.0,
    "photo": [],
    "bedrooms": 2,
    "bathrooms": 1,
    "parking_spaces": 0,
    "property_type": "Apartment / Unit / Flat"
  },
  {
    "street": "50 Brooker Street",
    "suburb": "TARRAWANNA",
    "state": "NSW",
    "postcode": "2518",
    "weekly_rent": 800.0,
    "photo": [],
    "bedrooms": 3,
    "bathrooms": 2,
    "parking_spaces": 1,
    "property_type": "House"
  },
  {
    "street": "3 Aitken Close",
    "suburb": "ALBION PARK",
    "state": "NSW",
    "postcode": "2527",
    "weekly_rent": 635.0,
    "photo": [],
    "bedrooms": 4,
    "bathrooms": 1,
    "parking_spaces": 3,
    "property_type": "House"
  },
  {
    "street": "235 Rothery Street",
    "suburb": "CORRIMAL",
    "state": "NSW",
    "postcode": "2518",
    "weekly_rent": 850.0,
    "photo": [],
    "bedrooms": 4,
    "bathrooms": 2,
    "parking_spaces": 1,
    "property_type": "House"
  },
  {
    "street": "13/13 Cambridge Avenue",
    "suburb": "FAIRY MEADOW",
    "state": "NSW",
    "postcode": "2519",
    "weekly_rent": 550.0,
    "photo": [],
    "bedrooms": 2,
    "bathrooms": 2,
    "parking_spaces": 1,
    "property_type": "Apartment / Unit / Flat"
  },
  {
    "street": "45 Booreea Boulevard",
    "suburb": "CORDEAUX HEIGHTS",
    "state": "NSW",
    "postcode": "2526",
    "weekly_rent": 680.0,
    "photo": [],
    "bedrooms": 3,
    "bathrooms": 1,
    "parking_spaces": 2,
    "property_type": "House"
  },
  {
    "street": "9/12 Hercules Street",
    "suburb": "WOLLONGONG",
    "state": "NSW",
    "postcode": "2500",
    "weekly_rent": 540.0,
    "photo": [
      "https://rimh2.domainstatic.com.au/zJic1_wBpD7tuteladtcLoSKhLA=/660x440/filters:format(jpeg):quality(80):no_upscale()/15267452_5_1_210720_110740-w3008-h2000"
    ],
    "bedrooms": 2,
    "bathrooms": 1,
    "parking_spaces": 1,
    "property_type": "Apartment / Unit / Flat"
  },
  {
    "street": "2/45 Paul Circuit",
    "suburb": "TULLIMBAR",
    "state": "NSW",
    "postcode": "2527",
    "weekly_rent": 650.0,
    "photo": [],
    "bedrooms": 3,
    "bathrooms": 2,
    "parking_spaces": 2,
    "property_type": "Duplex"
  },
  {
    "street": "3/20 Grey Street",
    "suburb": "KEIRAVILLE",
    "state": "NSW",
    "postcode": "2500",
    "weekly_rent": 400.0,
    "photo": [],
    "bedrooms": 1,
    "bathrooms": 1,
    "parking_spaces": 1,
    "property_type": "Apartment / Unit / Flat"
  },
  {
    "street": "22B Bentley Road",
    "suburb": "KEMBLA GRANGE",
    "state": "NSW",
    "postcode": "2526",
    "weekly_rent": 730.0,
    "photo": [],
    "bedrooms": 3,
    "bathrooms": 1,
    "parking_spaces": 1,
    "property_type": "Semi-detached"
  },
  {
    "street": "6/37 Bridge Street",
    "suburb": "CONISTON",
    "state": "NSW",
    "postcode": "2500",
    "weekly_rent": 775.0,
    "photo": [],
    "bedrooms": 3,
    "bathrooms": 1,
    "parking_spaces": 2,
    "property_type": "Townhouse"
  },
  {
    "street": "1/41 Addison Avenue",
    "suburb": "LAKE ILLAWARRA",
    "state": "NSW",
    "postcode": "2528",
    "weekly_rent": 620.0,
    "photo": [],
    "bedrooms": 3,
    "bathrooms": 1,
    "parking_spaces": 1,
    "property_type": "House"
  },
  {
    "street": "7/112 Bong Bong Road",
    "suburb": "HORSLEY",
    "state": "NSW",
    "postcode": "2530",
    "weekly_rent": 650.0,
    "photo": [],
    "bedrooms": 3,
    "bathrooms": 2,
    "parking_spaces": 2,
    "property_type": "Villa"
  },
  {
    "street": "2/14 Strone Avenue",
    "suburb": "MOUNT OUSLEY",
    "state": "NSW",
    "postcode": "2519",
    "weekly_rent": 600.0,
    "photo": [],
    "bedrooms": 3,
    "bathrooms": 1,
    "parking_spaces": 0,
    "property_type": "Apartment / Unit / Flat"
  },
  {
    "street": "76 Park Road",
    "suburb": "BULLI",
    "state": "NSW",
    "postcode": "2516",
    "weekly_rent": 1200.0,
    "photo": [],
    "bedrooms": 3,
    "bathrooms": 2,
    "parking_spaces": 1,
    "property_type": "House"
  },
  {
    "street": "8/6-8 Elliotts Road",
    "suburb": "FAIRY MEADOW",
    "state": "NSW",
    "postcode": "2519",
    "weekly_rent": 500.0,
    "photo": [],
    "bedrooms": 2,
    "bathrooms": 1,
    "parking_spaces": 1,
    "property_type": "Apartment / Unit / Flat"
  },
  {
    "street": "9/15 Kembla Street",
    "suburb": "WOLLONGONG",
    "state": "NSW",
    "postcode": "2500",
    "weekly_rent": 550.0,
    "photo": [],
    "bedrooms": 2,
    "bathrooms": 1,
    "parking_spaces": 1,
    "property_type": "Apartment / Unit / Flat"
  },
  {
    "street": "17a Overhill Road",
    "suburb": "PRIMBEE",
    "state": "NSW",
    "postcode": "2502",
    "weekly_rent": 740.0,
    "photo": [],
    "bedrooms": 3,
    "bathrooms": 2,
    "parking_spaces": 1,
    "property_type": "House"
  },
  {
    "street": "40 Honey Eater Drive",
    "suburb": "BLACKBUTT",
    "state": "NSW",
    "postcode": "2529",
    "weekly_rent": 780.0,
    "photo": [],
    "bedrooms": 3,
    "bathrooms": 2,
    "parking_spaces": 2,
    "property_type": "Duplex"
  },
  {
    "street": "23 The Circuit",
    "suburb": "SHELLHARBOUR",
    "state": "NSW",
    "postcode": "2529",
    "weekly_rent": 780.0,
    "photo": [],
    "bedrooms": 4,
    "bathrooms": 1,
    "parking_spaces": 1,
    "property_type": "House"
  },
  {
    "street": "3/1 Reid Street",
    "suburb": "OAK FLATS",
    "state": "NSW",
    "postcode": "2529",
    "weekly_rent": 680.0,
    "photo": [],
    "bedrooms": 3,
    "bathrooms": 2,
    "parking_spaces": 1,
    "property_type": "Villa"
  },
  {
    "street": "2/9 Matthews Street",
    "suburb": "WOLLONGONG",
    "state": "NSW",
    "postcode": "2500",
    "weekly_rent": 500.0,
    "photo": [],
    "bedrooms": 2,
    "bathrooms": 1,
    "parking_spaces": 1,
    "property_type": "Apartment / Unit / Flat"
  },
  {
    "street": "2/13 Grafton Avenue",
    "suburb": "FIGTREE",
    "state": "NSW",
    "postcode": "2525",
    "weekly_rent": 450.0,
    "photo": [],
    "bedrooms": 2,
    "bathrooms": 1,
    "parking_spaces": 1,
    "property_type": "Apartment / Unit / Flat"
  },
  {
    "street": "25 Foley Street",
    "suburb": "GWYNNEVILLE",
    "state": "NSW",
    "postcode": "2500",
    "weekly_rent": 550.0,
    "photo": [
      "https://rimh2.domainstatic.com.au/oLg9v7O_eZw-vZlbMir7aYrc8sk=/660x440/filters:format(jpeg):quality(80):no_upscale()/17373671_1_1_250106_061152-w588-h322"
    ],
    "bedrooms": 3,
    "bathrooms": 1,
    "parking_spaces": 1,
    "property_type": "House"
  },
  {
    "street": "1/81 Collins Street",
    "suburb": "CORRIMAL",
    "state": "NSW",
    "postcode": "2518",
    "weekly_rent": 580.0,
    "photo": [],
    "bedrooms": 2,
    "bathrooms": 1,
    "parking_spaces": 2,
    "property_type": "Townhouse"
  },
  {
    "street": "2B Western Avenue",
    "suburb": "DAPTO",
    "state": "NSW",
    "postcode": "2530",
    "weekly_rent": 550.0,
    "photo": [],
    "bedrooms": 3,
    "bathrooms": 1,
    "parking_spaces": 1,
    "property_type": "House"
  },
  {
    "street": "11/27 Norman Street",
    "suburb": "FAIRY MEADOW",
    "state": "NSW",
    "postcode": "2519",
    "weekly_rent": 690.0,
    "photo": [
      "https://rimh2.domainstatic.com.au/fweNvV4FeoT9Lw1U865N_6h7sJI=/660x440/filters:format(jpeg):quality(80):no_upscale()/15434533_1_1_211007_051131-w4032-h3024"
    ],
    "bedrooms": 3,
    "bathrooms": 1,
    "parking_spaces": 1,
    "property_type": "Townhouse"
  },
  {
    "street": "1/16-20 Keira Street",
    "suburb": "WOLLONGONG",
    "state": "NSW",
    "postcode": "2500",
    "weekly_rent": 925.0,
    "photo": [],
    "bedrooms": 3,
    "bathrooms": 2,
    "parking_spaces": 2,
    "property_type": "Apartment / Unit / Flat"
  },
  {
    "street": "42 Colgong Crescent",
    "suburb": "TOWRADGI",
    "state": "NSW",
    "postcode": "2518",
    "weekly_rent": 730.0,
    "photo": [],
    "bedrooms": 4,
    "bathrooms": 2,
    "parking_spaces": 1,
    "property_type": "House"
  },
  {
    "street": "4/41 Carroll Road",
    "suburb": "EAST CORRIMAL",
    "state": "NSW",
    "postcode": "2518",
    "weekly_rent": 480.0,
    "photo": [],
    "bedrooms": 2,
    "bathrooms": 1,
    "parking_spaces": 1,
    "property_type": "Apartment / Unit / Flat"
  },
  {
    "street": "13/82-88 Daintree Drive",
    "suburb": "ALBION PARK",
    "state": "NSW",
    "postcode": "2527",
    "weekly_rent": 630.0,
    "photo": [],
    "bedrooms": 3,
    "bathrooms": 1,
    "parking_spaces": 2,
    "property_type": "Townhouse"
  },
  {
    "street": "802/35 Kenny Street",
    "suburb": "WOLLONGONG",
    "state": "NSW",
    "postcode": "2500",
    "weekly_rent": 650.0,
    "photo": [],
    "bedrooms": 1,
    "bathrooms": 1,
    "parking_spaces": 1,
    "property_type": "Apartment / Unit / Flat"
  },
  {
    "street": "1/20 Nioka Avenue",
    "suburb": "KEIRAVILLE",
    "state": "NSW",
    "postcode": "2500",
    "weekly_rent": 780.0,
    "photo": [],
    "bedrooms": 4,
    "bathrooms": 2,
    "parking_spaces": 1,
    "property_type": "Apartment / Unit / Flat"
  },
  {
    "street": "46 Attunga Avenue",
    "suburb": "KIAMA HEIGHTS",
    "state": "NSW",
    "postcode": "2533",
    "weekly_rent": 730.0,
    "photo": [],
    "bedrooms": 4,
    "bathrooms": 2,
    "parking_spaces": 1,
    "property_type": "House"
  },
  {
    "street": "1/21 Yellagong Street",
    "suburb": "WEST WOLLONGONG",
    "state": "NSW",
    "postcode": "2500",
    "weekly_rent": 520.0,
    "photo": [],
    "bedrooms": 2,
    "bathrooms": 1,
    "parking_spaces": 1,
    "property_type": "Apartment / Unit / Flat"
  },
  {
    "street": "5 First St",
    "suburb": "WOLLONGONG",
    "state": "NSW",
    "postcode": "2500",
    "weekly_rent": 850.0,
    "photo": [],
    "bedrooms": 3,
    "bathrooms": 1,
    "parking_spaces": 1,
    "property_type": "House"
  },
  {
    "street": "6/62 Corrimal Street",
    "suburb": "WOLLONGONG",
    "state": "NSW",
    "postcode": "2500",
    "weekly_rent": 520.0,
    "photo": [],
    "bedrooms": 2,
    "bathrooms": 1,
    "parking_spaces": 1,
    "property_type": "Apartment / Unit / Flat"
  },
  {
    "street": "7/53 Corrimal Street",
    "suburb": "WOLLONGONG",
    "state": "NSW",
    "postcode": "2500",
    "weekly_rent": 470.0,
    "photo": [],
    "bedrooms": 1,
    "bathrooms": 1,
    "parking_spaces": 0,
    "property_type": "House"
  },
  {
    "street": "504/14-18 Auburn Street",
    "suburb": "WOLLONGONG",
    "state": "NSW",
    "postcode": "2500",
    "weekly_rent": 710.0,
    "photo": [],
    "bedrooms": 2,
    "bathrooms": 2,
    "parking_spaces": 1,
    "property_type": "Apartment / Unit / Flat"
  },
  {
    "street": "202/50 Kembla Street",
    "suburb": "WOLLONGONG",
    "state": "NSW",
    "postcode": "2500",
    "weekly_rent": 700.0,
    "photo": [],
    "bedrooms": 2,
    "bathrooms": 2,
    "parking_spaces": 1,
    "property_type": "Apartment / Unit / Flat"
  },
  {
    "street": "20/11 Ocean Street",
    "suburb": "NORTH WOLLONGONG",
    "state": "NSW",
    "postcode": "2500",
    "weekly_rent": 520.0,
    "photo": [],
    "bedrooms": 1,
    "bathrooms": 1,
    "parking_spaces": 1,
    "property_type": "Apartment / Unit / Flat"
  },
  {
    "street": "3a Hector Street",
    "suburb": "WOLLONGONG",
    "state": "NSW",
    "postcode": "2500",
    "weekly_rent": 390.0,
    "photo": [],
    "bedrooms": 1,
    "bathrooms": 1,
    "parking_spaces": 0,
    "property_type": "Apartment / Unit / Flat"
  },
  {
    "street": "298a Northcliffe Drive",
    "suburb": "LAKE HEIGHTS",
    "state": "NSW",
    "postcode": "2502",
    "weekly_rent": 480.0,
    "photo": [],
    "bedrooms": 2,
    "bathrooms": 1,
    "parking_spaces": 0,
    "property_type": "Apartment / Unit / Flat"
  },
  {
    "street": "2/1 Reid Street",
    "suburb": "OAK FLATS",
    "state": "NSW",
    "postcode": "2529",
    "weekly_rent": 680.0,
    "photo": [],
    "bedrooms": 3,
    "bathrooms": 2,
    "parking_spaces": 1,
    "property_type": "Apartment / Unit / Flat"
  },
  {
    "street": "6/30-32 Pleasant Avenue",
    "suburb": "NORTH WOLLONGONG",
    "state": "NSW",
    "postcode": "2500",
    "weekly_rent": 580.0,
    "photo": [],
    "bedrooms": 2,
    "bathrooms": 1,
    "parking_spaces": 1,
    "property_type": "Apartment / Unit / Flat"
  },
  {
    "street": "34 Wallace Road",
    "suburb": "FERNHILL",
    "state": "NSW",
    "postcode": "2519",
    "weekly_rent": 575.0,
    "photo": [],
    "bedrooms": 2,
    "bathrooms": 1,
    "parking_spaces": 2,
    "property_type": "House"
  },
  {
    "street": "11/10 Kiandra Road",
    "suburb": "WOONONA",
    "state": "NSW",
    "postcode": "2517",
    "weekly_rent": 520.0,
    "photo": [],
    "bedrooms": 2,
    "bathrooms": 1,
    "parking_spaces": 1,
    "property_type": "Apartment / Unit / Flat"
  },
  {
    "street": "26 Siska Circuit",
    "suburb": "SHELL COVE",
    "state": "NSW",
    "postcode": "2529",
    "weekly_rent": 760.0,
    "photo": [],
    "bedrooms": 4,
    "bathrooms": 2,
    "parking_spaces": 2,
    "property_type": "House"
  },
  {
    "street": "4/58 Bourke St",
    "suburb": "WOLLONGONG",
    "state": "NSW",
    "postcode": "2500",
    "weekly_rent": 600.0,
    "photo": [],
    "bedrooms": 2,
    "bathrooms": 1,
    "parking_spaces": 1,
    "property_type": "Apartment / Unit / Flat"
  },
  {
    "street": "34A Robsons Road",
    "suburb": "KEIRAVILLE",
    "state": "NSW",
    "postcode": "2500",
    "weekly_rent": 595.0,
    "photo": [],
    "bedrooms": 2,
    "bathrooms": 1,
    "parking_spaces": 2,
    "property_type": "Apartment / Unit / Flat"
  },
  {
    "street": "36A Wildflower Crescent",
    "suburb": "CALDERWOOD",
    "state": "NSW",
    "postcode": "2527",
    "weekly_rent": 510.0,
    "photo": [],
    "bedrooms": 2,
    "bathrooms": 1,
    "parking_spaces": 0,
    "property_type": "Apartment / Unit / Flat"
  },
  {
    "street": "53 Minnegang Street",
    "suburb": "WARRAWONG",
    "state": "NSW",
    "postcode": "2502",
    "weekly_rent": 600.0,
    "photo": [],
    "bedrooms": 3,
    "bathrooms": 1,
    "parking_spaces": 2,
    "property_type": "House"
  },
  {
    "street": "1/59 Bruce Street",
    "suburb": "UNANDERRA",
    "state": "NSW",
    "postcode": "2526",
    "weekly_rent": 525.0,
    "photo": [],
    "bedrooms": 2,
    "bathrooms": 1,
    "parking_spaces": 1,
    "property_type": "Apartment / Unit / Flat"
  },
  {
    "street": "11 Branch Avenue",
    "suburb": "FIGTREE",
    "state": "NSW",
    "postcode": "2525",
    "weekly_rent": 850.0,
    "photo": [],
    "bedrooms": 3,
    "bathrooms": 1,
    "parking_spaces": 2,
    "property_type": "House"
  },
  {
    "street": "2/136 Terralong Street",
    "suburb": "KIAMA",
    "state": "NSW",
    "postcode": "2533",
    "weekly_rent": 425.0,
    "photo": [],
    "bedrooms": 2,
    "bathrooms": 1,
    "parking_spaces": 1,
    "property_type": "Apartment / Unit / Flat"
  },
  {
    "street": "11/30 Kembla Street",
    "suburb": "WOLLONGONG",
    "state": "NSW",
    "postcode": "2500",
    "weekly_rent": 580.0,
    "photo": [],
    "bedrooms": 2,
    "bathrooms": 1,
    "parking_spaces": 1,
    "property_type": "Apartment / Unit / Flat"
  },
  {
    "street": "6 Mianga Crescent",
    "suburb": "UNANDERRA",
    "state": "NSW",
    "postcode": "2526",
    "weekly_rent": 570.0,
    "photo": [],
    "bedrooms": 3,
    "bathrooms": 1,
    "parking_spaces": 1,
    "property_type": "House"
  },
  {
    "street": "2/2a Douglas Road",
    "suburb": "FERNHILL",
    "state": "NSW",
    "postcode": "2519",
    "weekly_rent": 750.0,
    "photo": [],
    "bedrooms": 3,
    "bathrooms": 2,
    "parking_spaces": 2,
    "property_type": "Townhouse"
  },
  {
    "street": "2/8 Boyd Street",
    "suburb": "MINNAMURRA",
    "state": "NSW",
    "postcode": "2533",
    "weekly_rent": 630.0,
    "photo": [],
    "bedrooms": 2,
    "bathrooms": 1,
    "parking_spaces": 1,
    "property_type": "Apartment / Unit / Flat"
  },
  {
    "street": "107/35 Kenny Street",
    "suburb": "WOLLONGONG",
    "state": "NSW",
    "postcode": "2500",
    "weekly_rent": 760.0,
    "photo": [],
    "bedrooms": 2,
    "bathrooms": 2,
    "parking_spaces": 1,
    "property_type": "Apartment / Unit / Flat"
  },
  {
    "street": "3/13 Pioneer Road",
    "suburb": "BELLAMBI",
    "state": "NSW",
    "postcode": "2518",
    "weekly_rent": 1100.0,
    "photo": [],
    "bedrooms": 4,
    "bathrooms": 2,
    "parking_spaces": 2,
    "property_type": "Townhouse"
  },
  {
    "street": "203/28 Church St",
    "suburb": "WOLLONGONG",
    "state": "NSW",
    "postcode": "2500",
    "weekly_rent": 730.0,
    "photo": [],
    "bedrooms": 2,
    "bathrooms": 2,
    "parking_spaces": 1,
    "property_type": "Apartment / Unit / Flat"
  },
  {
    "street": "4a Walker Lane",
    "suburb": "HELENSBURGH",
    "state": "NSW",
    "postcode": "2508",
    "weekly_rent": 875.0,
    "photo": [],
    "bedrooms": 3,
    "bathrooms": 1,
    "parking_spaces": 1,
    "property_type": "Duplex"
  },
  {
    "street": "202/16 Burelli Street",
    "suburb": "WOLLONGONG",
    "state": "NSW",
    "postcode": "2500",
    "weekly_rent": 750.0,
    "photo": [],
    "bedrooms": 2,
    "bathrooms": 2,
    "parking_spaces": 1,
    "property_type": "Apartment / Unit / Flat"
  },
  {
    "street": "1B King Street",
    "suburb": "LAKE ILLAWARRA",
    "state": "NSW",
    "postcode": "2528",
    "weekly_rent": 680.0,
    "photo": [],
    "bedrooms": 3,
    "bathrooms": 1,
    "parking_spaces": 1,
    "property_type": "Townhouse"
  },
  {
    "street": "15 Sheffield Street",
    "suburb": "CRINGILA",
    "state": "NSW",
    "postcode": "2502",
    "weekly_rent": 500.0,
    "photo": [],
    "bedrooms": 2,
    "bathrooms": 1,
    "parking_spaces": 1,
    "property_type": "House"
  },
  {
    "street": "34 Lucinda Street",
    "suburb": "GWYNNEVILLE",
    "state": "NSW",
    "postcode": "2500",
    "weekly_rent": 700.0,
    "photo": [],
    "bedrooms": 3,
    "bathrooms": 1,
    "parking_spaces": 2,
    "property_type": "House"
  },
  {
    "street": "3/16 Grey Street",
    "suburb": "KEIRAVILLE",
    "state": "NSW",
    "postcode": "2500",
    "weekly_rent": 650.0,
    "photo": [],
    "bedrooms": 3,
    "bathrooms": 1,
    "parking_spaces": 1,
    "property_type": "Townhouse"
  },
  {
    "street": "68 Fern Street",
    "suburb": "GERRINGONG",
    "state": "NSW",
    "postcode": "2534",
    "weekly_rent": 400.0,
    "photo": [],
    "bedrooms": 1,
    "bathrooms": 1,
    "parking_spaces": 1,
    "property_type": "House"
  },
  {
    "street": "1/10 Railway Street",
    "suburb": "EAST CORRIMAL",
    "state": "NSW",
    "postcode": "2518",
    "weekly_rent": 575.0,
    "photo": [],
    "bedrooms": 2,
    "bathrooms": 1,
    "parking_spaces": 1,
    "property_type": "Apartment / Unit / Flat"
  },
  {
    "street": "3 Anderson Street",
    "suburb": "WOONONA",
    "state": "NSW",
    "postcode": "2517",
    "weekly_rent": 1050.0,
    "photo": [],
    "bedrooms": 4,
    "bathrooms": 2,
    "parking_spaces": 2,
    "property_type": "House"
  },
  {
    "street": "501/35 Kenny Street",
    "suburb": "WOLLONGONG",
    "state": "NSW",
    "postcode": "2500",
    "weekly_rent": 700.0,
    "photo": [],
    "bedrooms": 2,
    "bathrooms": 2,
    "parking_spaces": 1,
    "property_type": "Apartment / Unit / Flat"
  },
  {
    "street": "6/4-6 Wiseman Avenue",
    "suburb": "NORTH WOLLONGONG",
    "state": "NSW",
    "postcode": "2500",
    "weekly_rent": 720.0,
    "photo": [],
    "bedrooms": 3,
    "bathrooms": 2,
    "parking_spaces": 2,
    "property_type": "Apartment / Unit / Flat"
  },
  {
    "street": "3/23 Monteith Street",
    "suburb": "CRINGILA",
    "state": "NSW",
    "postcode": "2502",
    "weekly_rent": 595.0,
    "photo": [],
    "bedrooms": 2,
    "bathrooms": 1,
    "parking_spaces": 1,
    "property_type": "Apartment / Unit / Flat"
  },
  {
    "street": "23 Kanahooka Road",
    "suburb": "KANAHOOKA",
    "state": "NSW",
    "postcode": "2530",
    "weekly_rent": 700.0,
    "photo": [],
    "bedrooms": 4,
    "bathrooms": 1,
    "parking_spaces": 2,
    "property_type": "House"
  },
  {
    "street": "27 Raymond Road",
    "suburb": "THIRROUL",
    "state": "NSW",
    "postcode": "2515",
    "weekly_rent": 1200.0,
    "photo": [],
    "bedrooms": 4,
    "bathrooms": 2,
    "parking_spaces": 1,
    "property_type": "House"
  },
  {
    "street": "12/45 Church Street",
    "suburb": "WOLLONGONG",
    "state": "NSW",
    "postcode": "2500",
    "weekly_rent": 480.0,
    "photo": [],
    "bedrooms": 2,
    "bathrooms": 1,
    "parking_spaces": 1,
    "property_type": "Apartment / Unit / Flat"
  },
  {
    "street": "25 Wilma Avenue",
    "suburb": "WARRAWONG",
    "state": "NSW",
    "postcode": "2502",
    "weekly_rent": 700.0,
    "photo": [],
    "bedrooms": 3,
    "bathrooms": 2,
    "parking_spaces": 2,
    "property_type": "House"
  },
  {
    "street": "34 Murranar Road",
    "suburb": "TOWRADGI",
    "state": "NSW",
    "postcode": "2518",
    "weekly_rent": 700.0,
    "photo": [],
    "bedrooms": 2,
    "bathrooms": 1,
    "parking_spaces": 1,
    "property_type": "House"
  },
  {
    "street": "6A Station Street",
    "suburb": "THIRROUL",
    "state": "NSW",
    "postcode": "2515",
    "weekly_rent": 820.0,
    "photo": [],
    "bedrooms": 2,
    "bathrooms": 1,
    "parking_spaces": 1,
    "property_type": "House"
  },
  {
    "street": "224 Brokers Road",
    "suburb": "MOUNT PLEASANT",
    "state": "NSW",
    "postcode": "2519",
    "weekly_rent": 760.0,
    "photo": [],
    "bedrooms": 3,
    "bathrooms": 2,
    "parking_spaces": 2,
    "property_type": "House"
  },
  {
    "street": "3/45 Rosemont Street",
    "suburb": "WEST WOLLONGONG",
    "state": "NSW",
    "postcode": "2500",
    "weekly_rent": 800.0,
    "photo": [],
    "bedrooms": 3,
    "bathrooms": 1,
    "parking_spaces": 1,
    "property_type": "Townhouse"
  },
  {
    "street": "50 Bourke Street",
    "suburb": "NORTH WOLLONGONG",
    "state": "NSW",
    "postcode": "2500",
    "weekly_rent": 825.0,
    "photo": [],
    "bedrooms": 3,
    "bathrooms": 2,
    "parking_spaces": 3,
    "property_type": "House"
  },
  {
    "street": "1/26 Campbell Street",
    "suburb": "WOLLONGONG",
    "state": "NSW",
    "postcode": "2500",
    "weekly_rent": 550.0,
    "photo": [],
    "bedrooms": 2,
    "bathrooms": 1,
    "parking_spaces": 1,
    "property_type": "Apartment / Unit / Flat"
  },
  {
    "street": "3/3 John Street",
    "suburb": "BALGOWNIE",
    "state": "NSW",
    "postcode": "2519",
    "weekly_rent": 615.0,
    "photo": [],
    "bedrooms": 2,
    "bathrooms": 1,
    "parking_spaces": 1,
    "property_type": "Townhouse"
  },
  {
    "street": "3/18 Raymond Road",
    "suburb": "THIRROUL",
    "state": "NSW",
    "postcode": "2515",
    "weekly_rent": 500.0,
    "photo": [],
    "bedrooms": 2,
    "bathrooms": 1,
    "parking_spaces": 0,
    "property_type": "Apartment / Unit / Flat"
  },
  {
    "street": "27 Bridge Street Street",
    "suburb": "CONISTON",
    "state": "NSW",
    "postcode": "2500",
    "weekly_rent": 800.0,
    "photo": [],
    "bedrooms": 3,
    "bathrooms": 2,
    "parking_spaces": 4,
    "property_type": "House"
  },
  {
    "street": "21/11-15 Church Street",
    "suburb": "WOLLONGONG",
    "state": "NSW",
    "postcode": "2500",
    "weekly_rent": 2500.0,
    "photo": [],
    "bedrooms": 4,
    "bathrooms": 2,
    "parking_spaces": 3,
    "property_type": "Apartment / Unit / Flat"
  },
  {
    "street": "50 McKenzie Avenue",
    "suburb": "WOLLONGONG",
    "state": "NSW",
    "postcode": "2500",
    "weekly_rent": 790.0,
    "photo": [],
    "bedrooms": 3,
    "bathrooms": 1,
    "parking_spaces": 1,
    "property_type": "House"
  },
  {
    "street": "23 Pier Avenue",
    "suburb": "SHELL COVE",
    "state": "NSW",
    "postcode": "2529",
    "weekly_rent": 900.0,
    "photo": [],
    "bedrooms": 4,
    "bathrooms": 3,
    "parking_spaces": 2,
    "property_type": "House"
  },
  {
    "street": "37 Cheshire Street",
    "suburb": "BERKELEY",
    "state": "NSW",
    "postcode": "2506",
    "weekly_rent": 780.0,
    "photo": [],
    "bedrooms": 3,
    "bathrooms": 3,
    "parking_spaces": 2,
    "property_type": "House"
  },
  {
    "street": "4/9 Stewart Street",
    "suburb": "WOLLONGONG",
    "state": "NSW",
    "postcode": "2500",
    "weekly_rent": 730.0,
    "photo": [],
    "bedrooms": 3,
    "bathrooms": 2,
    "parking_spaces": 2,
    "property_type": "Apartment / Unit / Flat"
  },
  {
    "street": "7/10-12 Murray Road",
    "suburb": "CORRIMAL",
    "state": "NSW",
    "postcode": "2518",
    "weekly_rent": 400.0,
    "photo": [],
    "bedrooms": 1,
    "bathrooms": 1,
    "parking_spaces": 1,
    "property_type": "Apartment / Unit / Flat"
  },
  {
    "street": "12 Garreeaira Road",
    "suburb": "WONGAWILLI",
    "state": "NSW",
    "postcode": "2530",
    "weekly_rent": 790.0,
    "photo": [],
    "bedrooms": 4,
    "bathrooms": 2,
    "parking_spaces": 2,
    "property_type": "House"
  },
  {
    "street": "46 Second Avenue North",
    "suburb": "WARRAWONG",
    "state": "NSW",
    "postcode": "2502",
    "weekly_rent": 280.0,
    "photo": [],
    "bedrooms": 1,
    "bathrooms": 1,
    "parking_spaces": 0,
    "property_type": "Studio"
  },
  {
    "street": "6b Willowbank Place",
    "suburb": "GERRINGONG",
    "state": "NSW",
    "postcode": "2534",
    "weekly_rent": 680.0,
    "photo": [],
    "bedrooms": 3,
    "bathrooms": 2,
    "parking_spaces": 2,
    "property_type": "Semi-detached"
  },
  {
    "street": "54 The Kingsway",
    "suburb": "BARRACK HEIGHTS",
    "state": "NSW",
    "postcode": "2528",
    "weekly_rent": 850.0,
    "photo": [],
    "bedrooms": 3,
    "bathrooms": 2,
    "parking_spaces": 2,
    "property_type": "House"
  },
  {
    "street": "96 Beatus Street",
    "suburb": "UNANDERRA",
    "state": "NSW",
    "postcode": "2526",
    "weekly_rent": 750.0,
    "photo": [],
    "bedrooms": 4,
    "bathrooms": 2,
    "parking_spaces": 1,
    "property_type": "House"
  },
  {
    "street": "57 Korrongulla Crescent",
    "suburb": "PRIMBEE",
    "state": "NSW",
    "postcode": "2502",
    "weekly_rent": 590.0,
    "photo": [],
    "bedrooms": 2,
    "bathrooms": 1,
    "parking_spaces": 2,
    "property_type": "House"
  },
  {
    "street": "804/16 Belmore Street",
    "suburb": "WOLLONGONG",
    "state": "NSW",
    "postcode": "2500",
    "weekly_rent": 990.0,
    "photo": [],
    "bedrooms": 3,
    "bathrooms": 2,
    "parking_spaces": 1,
    "property_type": "Apartment / Unit / Flat"
  },
  {
    "street": "128A Araluen Terrace",
    "suburb": "TULLIMBAR",
    "state": "NSW",
    "postcode": "2527",
    "weekly_rent": 700.0,
    "photo": [],
    "bedrooms": 3,
    "bathrooms": 2,
    "parking_spaces": 2,
    "property_type": "Townhouse"
  },
  {
    "street": "15 Stephens Street",
    "suburb": "ALBION PARK",
    "state": "NSW",
    "postcode": "2527",
    "weekly_rent": 850.0,
    "photo": [],
    "bedrooms": 5,
    "bathrooms": 2,
    "parking_spaces": 2,
    "property_type": "House"
  },
  {
    "street": "7 Hillcrest Street",
    "suburb": "WOLLONGONG",
    "state": "NSW",
    "postcode": "2500",
    "weekly_rent": 600.0,
    "photo": [],
    "bedrooms": 3,
    "bathrooms": 1,
    "parking_spaces": 1,
    "property_type": "House"
  },
  {
    "street": "22a Boollwarroo Parade",
    "suburb": "SHELLHARBOUR",
    "state": "NSW",
    "postcode": "2529",
    "weekly_rent": 1000.0,
    "photo": [],
    "bedrooms": 4,
    "bathrooms": 3,
    "parking_spaces": 1,
    "property_type": "House"
  },
  {
    "street": "1/143 Pioneer Drive",
    "suburb": "FLINDERS",
    "state": "NSW",
    "postcode": "2529",
    "weekly_rent": 600.0,
    "photo": [],
    "bedrooms": 3,
    "bathrooms": 1,
    "parking_spaces": 1,
    "property_type": "Villa"
  },
  {
    "street": "12 Staff Street",
    "suburb": "WOLLONGONG",
    "state": "NSW",
    "postcode": "2500",
    "weekly_rent": 650.0,
    "photo": [],
    "bedrooms": 2,
    "bathrooms": 1,
    "parking_spaces": 2,
    "property_type": "House"
  },
  {
    "street": "5/9 Zelang Avenue",
    "suburb": "FIGTREE",
    "state": "NSW",
    "postcode": "2525",
    "weekly_rent": 450.0,
    "photo": [
      "https://rimh2.domainstatic.com.au/RloOkzm5BJuDmPj7Q_veem7RnO0=/660x440/filters:format(jpeg):quality(80)/17318725_1_1_241122_074312-w1307-h834"
    ],
    "bedrooms": 1,
    "bathrooms": 1,
    "parking_spaces": 1,
    "property_type": "Apartment / Unit / Flat"
  },
  {
    "street": "2/30 Rickard Rd",
    "suburb": "UNANDERRA",
    "state": "NSW",
    "postcode": "2526",
    "weekly_rent": 450.0,
    "photo": [],
    "bedrooms": 2,
    "bathrooms": 1,
    "parking_spaces": 1,
    "property_type": "Apartment / Unit / Flat"
  },
  {
    "street": "13 Kimbarra Crescent",
    "suburb": "KOONAWARRA",
    "state": "NSW",
    "postcode": "2530",
    "weekly_rent": 560.0,
    "photo": [],
    "bedrooms": 3,
    "bathrooms": 1,
    "parking_spaces": 1,
    "property_type": "House"
  },
  {
    "street": "34 Redgum Forest Way",
    "suburb": "FIGTREE",
    "state": "NSW",
    "postcode": "2525",
    "weekly_rent": 1800.0,
    "photo": [],
    "bedrooms": 4,
    "bathrooms": 3,
    "parking_spaces": 2,
    "property_type": "House"
  },
  {
    "street": "102/26 Burelli Street",
    "suburb": "WOLLONGONG",
    "state": "NSW",
    "postcode": "2500",
    "weekly_rent": 775.0,
    "photo": [],
    "bedrooms": 2,
    "bathrooms": 1,
    "parking_spaces": 1,
    "property_type": "Apartment / Unit / Flat"
  },
  {
    "street": "16A Jardine Street",
    "suburb": "FAIRY MEADOW",
    "state": "NSW",
    "postcode": "2519",
    "weekly_rent": 560.0,
    "photo": [],
    "bedrooms": 3,
    "bathrooms": 1,
    "parking_spaces": 1,
    "property_type": "Villa"
  },
  {
    "street": "1/56 Cummins St",
    "suburb": "UNANDERRA",
    "state": "NSW",
    "postcode": "2526",
    "weekly_rent": 725.0,
    "photo": [],
    "bedrooms": 3,
    "bathrooms": 2,
    "parking_spaces": 2,
    "property_type": "Townhouse"
  },
  {
    "street": "10 Mulda Street",
    "suburb": "DAPTO",
    "state": "NSW",
    "postcode": "2530",
    "weekly_rent": 850.0,
    "photo": [],
    "bedrooms": 5,
    "bathrooms": 2,
    "parking_spaces": 4,
    "property_type": "House"
  },
  {
    "street": "13A Lake Heights Road",
    "suburb": "LAKE HEIGHTS",
    "state": "NSW",
    "postcode": "2502",
    "weekly_rent": 850.0,
    "photo": [],
    "bedrooms": 4,
    "bathrooms": 3,
    "parking_spaces": 1,
    "property_type": "Semi-detached"
  },
  {
    "street": "2 Frederick Street",
    "suburb": "WOLLONGONG",
    "state": "NSW",
    "postcode": "2500",
    "weekly_rent": 750.0,
    "photo": [],
    "bedrooms": 3,
    "bathrooms": 2,
    "parking_spaces": 1,
    "property_type": "House"
  },
  {
    "street": "1/149 - 151 Central Ave",
    "suburb": "OAK FLATS",
    "state": "NSW",
    "postcode": "2529",
    "weekly_rent": 650.0,
    "photo": [],
    "bedrooms": 3,
    "bathrooms": 1,
    "parking_spaces": 1,
    "property_type": "Villa"
  },
  {
    "street": "7/14 Dallas Street",
    "suburb": "KEIRAVILLE",
    "state": "NSW",
    "postcode": "2500",
    "weekly_rent": 210.0,
    "photo": [],
    "bedrooms": 1,
    "bathrooms": 1,
    "parking_spaces": 0,
    "property_type": "Apartment / Unit / Flat"
  },
  {
    "street": "5/14 Dallas Street",
    "suburb": "KEIRAVILLE",
    "state": "NSW",
    "postcode": "2500",
    "weekly_rent": 210.0,
    "photo": [],
    "bedrooms": 1,
    "bathrooms": 1,
    "parking_spaces": 0,
    "property_type": "Apartment / Unit / Flat"
  },
  {
    "street": "10/44-46 Rowland Avenue",
    "suburb": "WOLLONGONG",
    "state": "NSW",
    "postcode": "2500",
    "weekly_rent": 820.0,
    "photo": [],
    "bedrooms": 3,
    "bathrooms": 1,
    "parking_spaces": 1,
    "property_type": "Townhouse"
  },
  {
    "street": "12/5B Cockatiel",
    "suburb": "BLACKBUTT",
    "state": "NSW",
    "postcode": "2529",
    "weekly_rent": 760.0,
    "photo": [],
    "bedrooms": 3,
    "bathrooms": 2,
    "parking_spaces": 2,
    "property_type": "Townhouse"
  },
  {
    "street": "70 Beltana Avenue",
    "suburb": "DAPTO",
    "state": "NSW",
    "postcode": "2530",
    "weekly_rent": 660.0,
    "photo": [],
    "bedrooms": 3,
    "bathrooms": 1,
    "parking_spaces": 1,
    "property_type": "House"
  },
  {
    "street": "13 Brian Street",
    "suburb": "BALGOWNIE",
    "state": "NSW",
    "postcode": "2519",
    "weekly_rent": 650.0,
    "photo": [],
    "bedrooms": 3,
    "bathrooms": 1,
    "parking_spaces": 2,
    "property_type": "House"
  },
  {
    "street": "38 Edgar Street",
    "suburb": "TOWRADGI",
    "state": "NSW",
    "postcode": "2518",
    "weekly_rent": 825.0,
    "photo": [],
    "bedrooms": 3,
    "bathrooms": 2,
    "parking_spaces": 1,
    "property_type": "House"
  },
  {
    "street": "3/17 Henrietta Street",
    "suburb": "TOWRADGI",
    "state": "NSW",
    "postcode": "2518",
    "weekly_rent": 620.0,
    "photo": [],
    "bedrooms": 3,
    "bathrooms": 1,
    "parking_spaces": 0,
    "property_type": "House"
  },
  {
    "street": "1/14 Seabreeze Place",
    "suburb": "THIRROUL",
    "state": "NSW",
    "postcode": "2515",
    "weekly_rent": 420.0,
    "photo": [],
    "bedrooms": 1,
    "bathrooms": 1,
    "parking_spaces": 0,
    "property_type": "Apartment / Unit / Flat"
  },
  {
    "street": "601/14-18 Auburn Street",
    "suburb": "WOLLONGONG",
    "state": "NSW",
    "postcode": "2500",
    "weekly_rent": 720.0,
    "photo": [],
    "bedrooms": 2,
    "bathrooms": 2,
    "parking_spaces": 1,
    "property_type": "Apartment / Unit / Flat"
  },
  {
    "street": "5/62 Bourke Street",
    "suburb": "NORTH WOLLONGONG",
    "state": "NSW",
    "postcode": "2500",
    "weekly_rent": 500.0,
    "photo": [],
    "bedrooms": 1,
    "bathrooms": 1,
    "parking_spaces": 0,
    "property_type": "Apartment / Unit / Flat"
  },
  {
    "street": "78 Hospital Rd",
    "suburb": "BULLI",
    "state": "NSW",
    "postcode": "2516",
    "weekly_rent": 775.0,
    "photo": [],
    "bedrooms": 3,
    "bathrooms": 1,
    "parking_spaces": 1,
    "property_type": "House"
  },
  {
    "street": "480 Princes Highway",
    "suburb": "WOONONA",
    "state": "NSW",
    "postcode": "2517",
    "weekly_rent": 390.0,
    "photo": [],
    "bedrooms": 1,
    "bathrooms": 1,
    "parking_spaces": 0,
    "property_type": "Studio"
  },
  {
    "street": "1/62 Cawley Street",
    "suburb": "BELLAMBI",
    "state": "NSW",
    "postcode": "2518",
    "weekly_rent": 380.0,
    "photo": [],
    "bedrooms": 1,
    "bathrooms": 1,
    "parking_spaces": 1,
    "property_type": "Apartment / Unit / Flat"
  },
  {
    "street": "5/21 Smith Street",
    "suburb": "WOLLONGONG",
    "state": "NSW",
    "postcode": "2500",
    "weekly_rent": 600.0,
    "photo": [],
    "bedrooms": 2,
    "bathrooms": 1,
    "parking_spaces": 1,
    "property_type": "Apartment / Unit / Flat"
  },
  {
    "street": "26 Celestial Avenue",
    "suburb": "DUNMORE",
    "state": "NSW",
    "postcode": "2529",
    "weekly_rent": 780.0,
    "photo": [],
    "bedrooms": 3,
    "bathrooms": 2,
    "parking_spaces": 1,
    "property_type": "Duplex"
  },
  {
    "street": "6/4 Market Place",
    "suburb": "WOLLONGONG",
    "state": "NSW",
    "postcode": "2500",
    "weekly_rent": 1000.0,
    "photo": [],
    "bedrooms": 3,
    "bathrooms": 2,
    "parking_spaces": 2,
    "property_type": "Apartment / Unit / Flat"
  },
  {
    "street": "4 Avoca Place",
    "suburb": "ALBION PARK",
    "state": "NSW",
    "postcode": "2527",
    "weekly_rent": 660.0,
    "photo": [],
    "bedrooms": 3,
    "bathrooms": 1,
    "parking_spaces": 1,
    "property_type": "House"
  },
  {
    "street": "4 Covington Green",
    "suburb": "DAPTO",
    "state": "NSW",
    "postcode": "2530",
    "weekly_rent": 880.0,
    "photo": [],
    "bedrooms": 5,
    "bathrooms": 3,
    "parking_spaces": 2,
    "property_type": "House"
  },
  {
    "street": "21 Saturn Crescent",
    "suburb": "DUNMORE",
    "state": "NSW",
    "postcode": "2529",
    "weekly_rent": 790.0,
    "photo": [],
    "bedrooms": 3,
    "bathrooms": 2,
    "parking_spaces": 2,
    "property_type": "Semi-detached"
  },
  {
    "street": "1/13 Cochrane Street",
    "suburb": "WEST WOLLONGONG",
    "state": "NSW",
    "postcode": "2500",
    "weekly_rent": 540.0,
    "photo": [],
    "bedrooms": 2,
    "bathrooms": 1,
    "parking_spaces": 1,
    "property_type": "Apartment / Unit / Flat"
  },
  {
    "street": "602/15 Crown Street",
    "suburb": "WOLLONGONG",
    "state": "NSW",
    "postcode": "2500",
    "weekly_rent": 1100.0,
    "photo": [],
    "bedrooms": 3,
    "bathrooms": 2,
    "parking_spaces": 2,
    "property_type": "Apartment / Unit / Flat"
  },
  {
    "street": "3/3 Yallah Street",
    "suburb": "ALBION PARK RAIL",
    "state": "NSW",
    "postcode": "2527",
    "weekly_rent": 640.0,
    "photo": [],
    "bedrooms": 3,
    "bathrooms": 2,
    "parking_spaces": 1,
    "property_type": "Townhouse"
  },
  {
    "street": "4/84 Smith Street",
    "suburb": "WOLLONGONG",
    "state": "NSW",
    "postcode": "2500",
    "weekly_rent": 720.0,
    "photo": [],
    "bedrooms": 2,
    "bathrooms": 2,
    "parking_spaces": 1,
    "property_type": "Apartment / Unit / Flat"
  },
  {
    "street": "85/22-32 Gladstone Avenue",
    "suburb": "WOLLONGONG",
    "state": "NSW",
    "postcode": "2500",
    "weekly_rent": 860.0,
    "photo": [],
    "bedrooms": 3,
    "bathrooms": 2,
    "parking_spaces": 2,
    "property_type": "Apartment / Unit / Flat"
  },
  {
    "street": "15 Sandon Drive",
    "suburb": "BULLI",
    "state": "NSW",
    "postcode": "2516",
    "weekly_rent": 1450.0,
    "photo": [],
    "bedrooms": 4,
    "bathrooms": 3,
    "parking_spaces": 2,
    "property_type": "House"
  },
  {
    "street": "24B Hurry crescent",
    "suburb": "WARRAWONG",
    "state": "NSW",
    "postcode": "2502",
    "weekly_rent": 850.0,
    "photo": [],
    "bedrooms": 4,
    "bathrooms": 2,
    "parking_spaces": 2,
    "property_type": "Duplex"
  },
  {
    "street": "106/24 Mary Street",
    "suburb": "SHELLHARBOUR",
    "state": "NSW",
    "postcode": "2529",
    "weekly_rent": 850.0,
    "photo": [],
    "bedrooms": 3,
    "bathrooms": 2,
    "parking_spaces": 1,
    "property_type": "Apartment / Unit / Flat"
  },
  {
    "street": "67 Mirrabooka Road",
    "suburb": "LAKE HEIGHTS",
    "state": "NSW",
    "postcode": "2502",
    "weekly_rent": 550.0,
    "photo": [],
    "bedrooms": 3,
    "bathrooms": 1,
    "parking_spaces": 1,
    "property_type": "House"
  },
  {
    "street": "2/466 Princes Highway",
    "suburb": "WOONONA",
    "state": "NSW",
    "postcode": "2517",
    "weekly_rent": 700.0,
    "photo": [],
    "bedrooms": 3,
    "bathrooms": 1,
    "parking_spaces": 1,
    "property_type": "Townhouse"
  },
  {
    "street": "302 11 Lapwing Aveue",
    "suburb": "SHELL COVE",
    "state": "NSW",
    "postcode": "2529",
    "weekly_rent": 1000.0,
    "photo": [],
    "bedrooms": 3,
    "bathrooms": 2,
    "parking_spaces": 2,
    "property_type": "Apartment / Unit / Flat"
  },
  {
    "street": "70A Araluen Terrace",
    "suburb": "TULLIMBAR",
    "state": "NSW",
    "postcode": "2527",
    "weekly_rent": 700.0,
    "photo": [],
    "bedrooms": 3,
    "bathrooms": 2,
    "parking_spaces": 2,
    "property_type": "Semi-detached"
  },
  {
    "street": "2/2 Gipps Crescent",
    "suburb": "BARRACK HEIGHTS",
    "state": "NSW",
    "postcode": "2528",
    "weekly_rent": 490.0,
    "photo": [],
    "bedrooms": 2,
    "bathrooms": 1,
    "parking_spaces": 1,
    "property_type": "Apartment / Unit / Flat"
  },
  {
    "street": "10/81 Campbell Street",
    "suburb": "WOONONA",
    "state": "NSW",
    "postcode": "2517",
    "weekly_rent": 670.0,
    "photo": [],
    "bedrooms": 2,
    "bathrooms": 1,
    "parking_spaces": 1,
    "property_type": "Townhouse"
  },
  {
    "street": "3B Jasmine Street",
    "suburb": "HORSLEY",
    "state": "NSW",
    "postcode": "2530",
    "weekly_rent": 840.0,
    "photo": [],
    "bedrooms": 4,
    "bathrooms": 3,
    "parking_spaces": 1,
    "property_type": "House"
  },
  {
    "street": "12 Bellevue Road",
    "suburb": "FIGTREE",
    "state": "NSW",
    "postcode": "2525",
    "weekly_rent": 560.0,
    "photo": [],
    "bedrooms": 2,
    "bathrooms": 1,
    "parking_spaces": 1,
    "property_type": "House"
  },
  {
    "street": "2/98 Fern Street",
    "suburb": "GERRINGONG",
    "state": "NSW",
    "postcode": "2534",
    "weekly_rent": 450.0,
    "photo": [],
    "bedrooms": 1,
    "bathrooms": 1,
    "parking_spaces": 1,
    "property_type": "Apartment / Unit / Flat"
  },
  {
    "street": "81 Wentworth Street",
    "suburb": "PORT KEMBLA",
    "state": "NSW",
    "postcode": "2505",
    "weekly_rent": 260.0,
    "photo": [],
    "bedrooms": 0,
    "bathrooms": 1,
    "parking_spaces": 0,
    "property_type": "House"
  },
  {
    "street": "16a Bligh Street",
    "suburb": "WOLLONGONG",
    "state": "NSW",
    "postcode": "2500",
    "weekly_rent": 750.0,
    "photo": [],
    "bedrooms": 3,
    "bathrooms": 1,
    "parking_spaces": 2,
    "property_type": "House"
  },
  {
    "street": "35 Magpie Avenue",
    "suburb": "CALDERWOOD",
    "state": "NSW",
    "postcode": "2527",
    "weekly_rent": 840.0,
    "photo": [],
    "bedrooms": 5,
    "bathrooms": 3,
    "parking_spaces": 2,
    "property_type": "House"
  },
  {
    "street": "13A Fairfax Road",
    "suburb": "WARRAWONG",
    "state": "NSW",
    "postcode": "2502",
    "weekly_rent": 525.0,
    "photo": [],
    "bedrooms": 2,
    "bathrooms": 1,
    "parking_spaces": 0,
    "property_type": "Apartment / Unit / Flat"
  },
  {
    "street": "5/3 Allan Street",
    "suburb": "PORT KEMBLA",
    "state": "NSW",
    "postcode": "2505",
    "weekly_rent": 450.0,
    "photo": [],
    "bedrooms": 2,
    "bathrooms": 1,
    "parking_spaces": 1,
    "property_type": "Apartment / Unit / Flat"
  },
  {
    "street": "14F Nottingham Street",
    "suburb": "BERKELEY",
    "state": "NSW",
    "postcode": "2506",
    "weekly_rent": 950.0,
    "photo": [],
    "bedrooms": 5,
    "bathrooms": 2,
    "parking_spaces": 5,
    "property_type": "House"
  },
  {
    "street": "15 Ryan Street",
    "suburb": "BALGOWNIE",
    "state": "NSW",
    "postcode": "2519",
    "weekly_rent": 1100.0,
    "photo": [],
    "bedrooms": 4,
    "bathrooms": 2,
    "parking_spaces": 2,
    "property_type": "Townhouse"
  },
  {
    "street": "9/76-78 Pur Pur Avenue",
    "suburb": "LAKE ILLAWARRA",
    "state": "NSW",
    "postcode": "2528",
    "weekly_rent": 500.0,
    "photo": [],
    "bedrooms": 2,
    "bathrooms": 1,
    "parking_spaces": 1,
    "property_type": "Townhouse"
  },
  {
    "street": "73 Marsden Street",
    "suburb": "KIAMA",
    "state": "NSW",
    "postcode": "2533",
    "weekly_rent": 1500.0,
    "photo": [],
    "bedrooms": 5,
    "bathrooms": 3,
    "parking_spaces": 0,
    "property_type": "House"
  },
  {
    "street": "59A Saddleback Crescent",
    "suburb": "KEMBLA GRANGE",
    "state": "NSW",
    "postcode": "2526",
    "weekly_rent": 500.0,
    "photo": [],
    "bedrooms": 2,
    "bathrooms": 1,
    "parking_spaces": 1,
    "property_type": "Apartment / Unit / Flat"
  },
  {
    "street": "161 Pur Pur Avenue",
    "suburb": "LAKE ILLAWARRA",
    "state": "NSW",
    "postcode": "2528",
    "weekly_rent": 600.0,
    "photo": [],
    "bedrooms": 2,
    "bathrooms": 1,
    "parking_spaces": 1,
    "property_type": "House"
  },
  {
    "street": "49 Woodlawn Avenue",
    "suburb": "MANGERTON",
    "state": "NSW",
    "postcode": "2500",
    "weekly_rent": 850.0,
    "photo": [],
    "bedrooms": 4,
    "bathrooms": 2,
    "parking_spaces": 1,
    "property_type": "House"
  },
  {
    "street": "1/27 Cordeaux Road",
    "suburb": "CORDEAUX HEIGHTS",
    "state": "NSW",
    "postcode": "2526",
    "weekly_rent": 750.0,
    "photo": [],
    "bedrooms": 3,
    "bathrooms": 1,
    "parking_spaces": 2,
    "property_type": "House"
  },
  {
    "street": "Room 1/65 Smith St",
    "suburb": "WOLLONGONG",
    "state": "NSW",
    "postcode": "2500",
    "weekly_rent": 250.0,
    "photo": [],
    "bedrooms": 1,
    "bathrooms": 4,
    "parking_spaces": 0,
    "property_type": "House"
  },
  {
    "street": "21 Crown St",
    "suburb": "WOLLONGONG",
    "state": "NSW",
    "postcode": "2500",
    "weekly_rent": 550.0,
    "photo": [],
    "bedrooms": 2,
    "bathrooms": 1,
    "parking_spaces": 1,
    "property_type": "Apartment / Unit / Flat"
  },
  {
    "street": "59 & 59A Brunderee Road",
    "suburb": "FLINDERS",
    "state": "NSW",
    "postcode": "2529",
    "weekly_rent": 950.0,
    "photo": [],
    "bedrooms": 3,
    "bathrooms": 3,
    "parking_spaces": 2,
    "property_type": "Semi-detached"
  },
  {
    "street": "607 Lawrence Hargrave Drive",
    "suburb": "WOMBARRA",
    "state": "NSW",
    "postcode": "2515",
    "weekly_rent": 1600.0,
    "photo": [],
    "bedrooms": 3,
    "bathrooms": 2,
    "parking_spaces": 2,
    "property_type": "House"
  },
  {
    "street": "15/22-26 Flinders Street",
    "suburb": "WOLLONGONG",
    "state": "NSW",
    "postcode": "2500",
    "weekly_rent": 720.0,
    "photo": [],
    "bedrooms": 2,
    "bathrooms": 2,
    "parking_spaces": 1,
    "property_type": "Apartment / Unit / Flat"
  },
  {
    "street": "1/9 Paterson Road",
    "suburb": "COALCLIFF",
    "state": "NSW",
    "postcode": "2508",
    "weekly_rent": 500.0,
    "photo": [],
    "bedrooms": 1,
    "bathrooms": 1,
    "parking_spaces": 0,
    "property_type": "Apartment / Unit / Flat"
  },
  {
    "street": "9 Walang Ave",
    "suburb": "FIGTREE",
    "state": "NSW",
    "postcode": "2525",
    "weekly_rent": 825.0,
    "photo": [],
    "bedrooms": 4,
    "bathrooms": 2,
    "parking_spaces": 1,
    "property_type": "House"
  },
  {
    "street": "34 Newcastle Street",
    "suburb": "CRINGILA",
    "state": "NSW",
    "postcode": "2502",
    "weekly_rent": 200.0,
    "photo": [],
    "bedrooms": 1,
    "bathrooms": 1,
    "parking_spaces": 0,
    "property_type": "House"
  },
  {
    "street": "79 The Promontory Drive",
    "suburb": "SHELL COVE",
    "state": "NSW",
    "postcode": "2529",
    "weekly_rent": 860.0,
    "photo": [],
    "bedrooms": 4,
    "bathrooms": 3,
    "parking_spaces": 2,
    "property_type": "House"
  },
  {
    "street": "208/60 The Promontory Drive",
    "suburb": "SHELL COVE",
    "state": "NSW",
    "postcode": "2529",
    "weekly_rent": 850.0,
    "photo": [],
    "bedrooms": 2,
    "bathrooms": 2,
    "parking_spaces": 1,
    "property_type": "House"
  },
  {
    "street": "1 Andrew Avenue",
    "suburb": "KEIRAVILLE",
    "state": "NSW",
    "postcode": "2500",
    "weekly_rent": 200.0,
    "photo": [],
    "bedrooms": 1,
    "bathrooms": 1,
    "parking_spaces": 0,
    "property_type": "House"
  },
  {
    "street": "50 Paterson Road",
    "suburb": "COALCLIFF",
    "state": "NSW",
    "postcode": "2508",
    "weekly_rent": 920.0,
    "photo": [],
    "bedrooms": 3,
    "bathrooms": 1,
    "parking_spaces": 1,
    "property_type": "House"
  },
  {
    "street": "4 Horne Street",
    "suburb": "PORT KEMBLA",
    "state": "NSW",
    "postcode": "2505",
    "weekly_rent": 240.0,
    "photo": [],
    "bedrooms": 1,
    "bathrooms": 2,
    "parking_spaces": 0,
    "property_type": "Studio"
  },
  {
    "street": "15/65 Walker Street",
    "suburb": "HELENSBURGH",
    "state": "NSW",
    "postcode": "2508",
    "weekly_rent": 0.0,
    "photo": [],
    "bedrooms": 3,
    "bathrooms": 2,
    "parking_spaces": 2,
    "property_type": "Apartment / Unit / Flat"
  },
  {
    "street": "15 Barcoo Circuit",
    "suburb": "ALBION PARK",
    "state": "NSW",
    "postcode": "2527",
    "weekly_rent": 640.0,
    "photo": [],
    "bedrooms": 3,
    "bathrooms": 1,
    "parking_spaces": 1,
    "property_type": "House"
  },
  {
    "street": "17/65 Walker Street",
    "suburb": "HELENSBURGH",
    "state": "NSW",
    "postcode": "2508",
    "weekly_rent": 0.0,
    "photo": [],
    "bedrooms": 3,
    "bathrooms": 2,
    "parking_spaces": 2,
    "property_type": "Apartment / Unit / Flat"
  },
  {
    "street": "16/65 Walker Street",
    "suburb": "HELENSBURGH",
    "state": "NSW",
    "postcode": "2508",
    "weekly_rent": 0.0,
    "photo": [],
    "bedrooms": 3,
    "bathrooms": 2,
    "parking_spaces": 2,
    "property_type": "Apartment / Unit / Flat"
  },
  {
    "street": "3/157-159 Wentworth Street",
    "suburb": "PORT KEMBLA",
    "state": "NSW",
    "postcode": "2505",
    "weekly_rent": 430.0,
    "photo": [],
    "bedrooms": 0,
    "bathrooms": 1,
    "parking_spaces": 0,
    "property_type": "House"
  },
  {
    "street": "807/10-18 Regent Street",
    "suburb": "WOLLONGONG",
    "state": "NSW",
    "postcode": "2500",
    "weekly_rent": 720.0,
    "photo": [],
    "bedrooms": 2,
    "bathrooms": 1,
    "parking_spaces": 1,
    "property_type": "Apartment / Unit / Flat"
  },
  {
    "street": "1/13 Oceana Parade",
    "suburb": "AUSTINMER",
    "state": "NSW",
    "postcode": "2515",
    "weekly_rent": 600.0,
    "photo": [],
    "bedrooms": 2,
    "bathrooms": 1,
    "parking_spaces": 1,
    "property_type": "Townhouse"
  },
  {
    "street": "4/38 Robinson Street",
    "suburb": "WOLLONGONG",
    "state": "NSW",
    "postcode": "2500",
    "weekly_rent": 850.0,
    "photo": [],
    "bedrooms": 3,
    "bathrooms": 2,
    "parking_spaces": 2,
    "property_type": "Townhouse"
  },
  {
    "street": "4/2 Frances Street",
    "suburb": "GWYNNEVILLE",
    "state": "NSW",
    "postcode": "2500",
    "weekly_rent": 600.0,
    "photo": [],
    "bedrooms": 2,
    "bathrooms": 1,
    "parking_spaces": 0,
    "property_type": "Apartment / Unit / Flat"
  },
  {
    "street": "43/128 Belinda Street",
    "suburb": "GERRINGONG",
    "state": "NSW",
    "postcode": "2534",
    "weekly_rent": 600.0,
    "photo": [],
    "bedrooms": 2,
    "bathrooms": 1,
    "parking_spaces": 1,
    "property_type": "House"
  },
  {
    "street": "6/48 Bourke Street",
    "suburb": "NORTH WOLLONGONG",
    "state": "NSW",
    "postcode": "2500",
    "weekly_rent": 500.0,
    "photo": [],
    "bedrooms": 2,
    "bathrooms": 1,
    "parking_spaces": 0,
    "property_type": "Apartment / Unit / Flat"
  },
  {
    "street": "1/18 Phillips Avenue",
    "suburb": "WEST WOLLONGONG",
    "state": "NSW",
    "postcode": "2500",
    "weekly_rent": 900.0,
    "photo": [],
    "bedrooms": 3,
    "bathrooms": 2,
    "parking_spaces": 2,
    "property_type": "Townhouse"
  },
  {
    "street": "1/89 Lake Entrance Road",
    "suburb": "OAK FLATS",
    "state": "NSW",
    "postcode": "2529",
    "weekly_rent": 450.0,
    "photo": [],
    "bedrooms": 1,
    "bathrooms": 1,
    "parking_spaces": 1,
    "property_type": "Apartment / Unit / Flat"
  },
  {
    "street": "8 Brooker Street",
    "suburb": "TARRAWANNA",
    "state": "NSW",
    "postcode": "2518",
    "weekly_rent": 850.0,
    "photo": [],
    "bedrooms": 3,
    "bathrooms": 2,
    "parking_spaces": 3,
    "property_type": "House"
  },
  {
    "street": "2/141 Wyndarra Way",
    "suburb": "KOONAWARRA",
    "state": "NSW",
    "postcode": "2530",
    "weekly_rent": 820.0,
    "photo": [],
    "bedrooms": 5,
    "bathrooms": 2,
    "parking_spaces": 2,
    "property_type": "House"
  },
  {
    "street": "1/14 Railway Street",
    "suburb": "EAST CORRIMAL",
    "state": "NSW",
    "postcode": "2518",
    "weekly_rent": 610.0,
    "photo": [],
    "bedrooms": 2,
    "bathrooms": 2,
    "parking_spaces": 0,
    "property_type": "Townhouse"
  },
  {
    "street": "166 Farmborough Road",
    "suburb": "FARMBOROUGH HEIGHTS",
    "state": "NSW",
    "postcode": "2526",
    "weekly_rent": 950.0,
    "photo": [],
    "bedrooms": 4,
    "bathrooms": 3,
    "parking_spaces": 1,
    "property_type": "Semi-detached"
  },
  {
    "street": "2/33 Denise Street",
    "suburb": "LAKE HEIGHTS",
    "state": "NSW",
    "postcode": "2502",
    "weekly_rent": 320.0,
    "photo": [],
    "bedrooms": 2,
    "bathrooms": 1,
    "parking_spaces": 0,
    "property_type": "Apartment / Unit / Flat"
  },
  {
    "street": "132 Heaslip Street",
    "suburb": "MANGERTON",
    "state": "NSW",
    "postcode": "2500",
    "weekly_rent": 790.0,
    "photo": [],
    "bedrooms": 4,
    "bathrooms": 1,
    "parking_spaces": 1,
    "property_type": "House"
  },
  {
    "street": "1/200-202 Tongarra Road",
    "suburb": "ALBION PARK",
    "state": "NSW",
    "postcode": "2527",
    "weekly_rent": 610.0,
    "photo": [],
    "bedrooms": 2,
    "bathrooms": 1,
    "parking_spaces": 1,
    "property_type": "Villa"
  },
  {
    "street": "2/48 Thalassa Avenue",
    "suburb": "EAST CORRIMAL",
    "state": "NSW",
    "postcode": "2518",
    "weekly_rent": 600.0,
    "photo": [],
    "bedrooms": 3,
    "bathrooms": 1,
    "parking_spaces": 1,
    "property_type": "Townhouse"
  },
  {
    "street": "8 Payne Street",
    "suburb": "MANGERTON",
    "state": "NSW",
    "postcode": "2500",
    "weekly_rent": 750.0,
    "photo": [],
    "bedrooms": 3,
    "bathrooms": 2,
    "parking_spaces": 1,
    "property_type": "House"
  },
  {
    "street": "1/9 Eastern Street",
    "suburb": "GWYNNEVILLE",
    "state": "NSW",
    "postcode": "2500",
    "weekly_rent": 450.0,
    "photo": [],
    "bedrooms": 2,
    "bathrooms": 1,
    "parking_spaces": 1,
    "property_type": "Apartment / Unit / Flat"
  },
  {
    "street": "6 Jarrah Crescent",
    "suburb": "CORDEAUX HEIGHTS",
    "state": "NSW",
    "postcode": "2526",
    "weekly_rent": 1100.0,
    "photo": [],
    "bedrooms": 4,
    "bathrooms": 3,
    "parking_spaces": 2,
    "property_type": "House"
  },
  {
    "street": "1/47 Beverley Avenue",
    "suburb": "UNANDERRA",
    "state": "NSW",
    "postcode": "2526",
    "weekly_rent": 550.0,
    "photo": [],
    "bedrooms": 3,
    "bathrooms": 1,
    "parking_spaces": 0,
    "property_type": "House"
  },
  {
    "street": "16 Polock Crescent",
    "suburb": "ALBION PARK",
    "state": "NSW",
    "postcode": "2527",
    "weekly_rent": 640.0,
    "photo": [],
    "bedrooms": 3,
    "bathrooms": 1,
    "parking_spaces": 0,
    "property_type": "House"
  },
  {
    "street": "1/126 Glider Avenue",
    "suburb": "BLACKBUTT",
    "state": "NSW",
    "postcode": "2529",
    "weekly_rent": 650.0,
    "photo": [],
    "bedrooms": 3,
    "bathrooms": 2,
    "parking_spaces": 1,
    "property_type": "Townhouse"
  },
  {
    "street": "35 Weemala Crescent",
    "suburb": "KOONAWARRA",
    "state": "NSW",
    "postcode": "2530",
    "weekly_rent": 600.0,
    "photo": [],
    "bedrooms": 3,
    "bathrooms": 1,
    "parking_spaces": 1,
    "property_type": "House"
  },
  {
    "street": "85 Derribong Drive",
    "suburb": "CORDEAUX HEIGHTS",
    "state": "NSW",
    "postcode": "2526",
    "weekly_rent": 1050.0,
    "photo": [],
    "bedrooms": 4,
    "bathrooms": 3,
    "parking_spaces": 2,
    "property_type": "House"
  },
  {
    "street": "8/18-20 Robinson Street",
    "suburb": "WOLLONGONG",
    "state": "NSW",
    "postcode": "2500",
    "weekly_rent": 540.0,
    "photo": [],
    "bedrooms": 2,
    "bathrooms": 1,
    "parking_spaces": 1,
    "property_type": "Apartment / Unit / Flat"
  },
  {
    "street": "51 Outlook Drive",
    "suburb": "FIGTREE",
    "state": "NSW",
    "postcode": "2525",
    "weekly_rent": 750.0,
    "photo": [],
    "bedrooms": 3,
    "bathrooms": 1,
    "parking_spaces": 0,
    "property_type": "House"
  },
  {
    "street": "3/71 Heaslip Street",
    "suburb": "CONISTON",
    "state": "NSW",
    "postcode": "2500",
    "weekly_rent": 480.0,
    "photo": [],
    "bedrooms": 2,
    "bathrooms": 1,
    "parking_spaces": 0,
    "property_type": "Apartment / Unit / Flat"
  },
  {
    "street": "35 Bright Parade",
    "suburb": "DAPTO",
    "state": "NSW",
    "postcode": "2530",
    "weekly_rent": 590.0,
    "photo": [],
    "bedrooms": 4,
    "bathrooms": 1,
    "parking_spaces": 1,
    "property_type": "House"
  },
  {
    "street": "23 Stephanie Avenue",
    "suburb": "WARILLA",
    "state": "NSW",
    "postcode": "2528",
    "weekly_rent": 800.0,
    "photo": [],
    "bedrooms": 3,
    "bathrooms": 3,
    "parking_spaces": 1,
    "property_type": "House"
  },
  {
    "street": "102 Addison Avenue",
    "suburb": "LAKE ILLAWARRA",
    "state": "NSW",
    "postcode": "2528",
    "weekly_rent": 650.0,
    "photo": [],
    "bedrooms": 3,
    "bathrooms": 1,
    "parking_spaces": 1,
    "property_type": "House"
  },
  {
    "street": "302/290 Keira Street",
    "suburb": "WOLLONGONG",
    "state": "NSW",
    "postcode": "2500",
    "weekly_rent": 600.0,
    "photo": [],
    "bedrooms": 1,
    "bathrooms": 1,
    "parking_spaces": 1,
    "property_type": "Apartment / Unit / Flat"
  },
  {
    "street": "2/20 Virginia Street",
    "suburb": "NORTH WOLLONGONG",
    "state": "NSW",
    "postcode": "2500",
    "weekly_rent": 550.0,
    "photo": [],
    "bedrooms": 2,
    "bathrooms": 1,
    "parking_spaces": 1,
    "property_type": "Apartment / Unit / Flat"
  },
  {
    "street": "11A Saturn Crescent",
    "suburb": "DUNMORE",
    "state": "NSW",
    "postcode": "2529",
    "weekly_rent": 850.0,
    "photo": [],
    "bedrooms": 3,
    "bathrooms": 2,
    "parking_spaces": 2,
    "property_type": "House"
  },
  {
    "street": "9A Saturn Crescent",
    "suburb": "DUNMORE",
    "state": "NSW",
    "postcode": "2529",
    "weekly_rent": 850.0,
    "photo": [],
    "bedrooms": 3,
    "bathrooms": 2,
    "parking_spaces": 2,
    "property_type": "House"
  },
  {
    "street": "9/81-83 Campbell Street",
    "suburb": "WOONONA",
    "state": "NSW",
    "postcode": "2517",
    "weekly_rent": 600.0,
    "photo": [],
    "bedrooms": 2,
    "bathrooms": 1,
    "parking_spaces": 1,
    "property_type": "Villa"
  },
  {
    "street": "147 Koloona Avenue",
    "suburb": "MOUNT KEIRA",
    "state": "NSW",
    "postcode": "2500",
    "weekly_rent": 1500.0,
    "photo": [],
    "bedrooms": 3,
    "bathrooms": 1,
    "parking_spaces": 3,
    "property_type": "House"
  },
  {
    "street": "1/148 Riverside Drive",
    "suburb": "KIAMA DOWNS",
    "state": "NSW",
    "postcode": "2533",
    "weekly_rent": 635.0,
    "photo": [],
    "bedrooms": 3,
    "bathrooms": 1,
    "parking_spaces": 1,
    "property_type": "Duplex"
  },
  {
    "street": "96 Rose Valley Road",
    "suburb": "ROSE VALLEY",
    "state": "NSW",
    "postcode": "2534",
    "weekly_rent": 880.0,
    "photo": [
      "https://rimh2.domainstatic.com.au/wv-Mbpq5-6aAXQzSAmpkOKkdtT8=/660x440/filters:format(jpeg):quality(80):no_upscale()/17352128_1_1_241213_121916-w4284-h5712"
    ],
    "bedrooms": 4,
    "bathrooms": 1,
    "parking_spaces": 2,
    "property_type": "House"
  },
  {
    "street": "32 Towns Street",
    "suburb": "SHELLHARBOUR",
    "state": "NSW",
    "postcode": "2529",
    "weekly_rent": 920.0,
    "photo": [],
    "bedrooms": 4,
    "bathrooms": 2,
    "parking_spaces": 2,
    "property_type": "House"
  },
  {
    "street": "8a Coolgardie Street",
    "suburb": "EAST CORRIMAL",
    "state": "NSW",
    "postcode": "2518",
    "weekly_rent": 950.0,
    "photo": [],
    "bedrooms": 3,
    "bathrooms": 2,
    "parking_spaces": 2,
    "property_type": "Townhouse"
  },
  {
    "street": "6/401 Crown Street",
    "suburb": "WOLLONGONG",
    "state": "NSW",
    "postcode": "2500",
    "weekly_rent": 470.0,
    "photo": [],
    "bedrooms": 2,
    "bathrooms": 1,
    "parking_spaces": 1,
    "property_type": "Apartment / Unit / Flat"
  },
  {
    "street": "363 Lawrence Hargrave Drive",
    "suburb": "SCARBOROUGH",
    "state": "NSW",
    "postcode": "2515",
    "weekly_rent": 1950.0,
    "photo": [],
    "bedrooms": 3,
    "bathrooms": 3,
    "parking_spaces": 2,
    "property_type": "House"
  },
  {
    "street": "34 Sunset Avenue",
    "suburb": "WARILLA",
    "state": "NSW",
    "postcode": "2528",
    "weekly_rent": 50.0,
    "photo": [],
    "bedrooms": 1,
    "bathrooms": 1,
    "parking_spaces": 0,
    "property_type": "House"
  },
  {
    "street": "341 Crown Street",
    "suburb": "WOLLONGONG",
    "state": "NSW",
    "postcode": "2500",
    "weekly_rent": 350.0,
    "photo": [
      "https://rimh2.domainstatic.com.au/V58vbq4jXwD5Vw2ZLsz4sCR6aw8=/660x440/filters:format(jpeg):quality(80)/12937405_1_1_231024_043402-w797-h526"
    ],
    "bedrooms": 1,
    "bathrooms": 1,
    "parking_spaces": 2,
    "property_type": "Studio"
  },
  {
    "street": "6/68 Russell Street",
    "suburb": "WOONONA",
    "state": "NSW",
    "postcode": "2517",
    "weekly_rent": 580.0,
    "photo": [],
    "bedrooms": 2,
    "bathrooms": 1,
    "parking_spaces": 1,
    "property_type": "Apartment / Unit / Flat"
  },
  {
    "street": "2/460 Northcliffe Dr",
    "suburb": "BERKELEY",
    "state": "NSW",
    "postcode": "2506",
    "weekly_rent": 500.0,
    "photo": [],
    "bedrooms": 2,
    "bathrooms": 1,
    "parking_spaces": 2,
    "property_type": "Apartment / Unit / Flat"
  },
  {
    "street": "1/460 Northcliffe Dr",
    "suburb": "BERKELEY",
    "state": "NSW",
    "postcode": "2506",
    "weekly_rent": 550.0,
    "photo": [],
    "bedrooms": 3,
    "bathrooms": 1,
    "parking_spaces": 2,
    "property_type": "Apartment / Unit / Flat"
  },
  {
    "street": "1 Salisbury St",
    "suburb": "BERKELEY",
    "state": "NSW",
    "postcode": "2506",
    "weekly_rent": 600.0,
    "photo": [],
    "bedrooms": 3,
    "bathrooms": 1,
    "parking_spaces": 1,
    "property_type": "House"
  },
  {
    "street": "44 Pur Pur Avenue",
    "suburb": "LAKE ILLAWARRA",
    "state": "NSW",
    "postcode": "2528",
    "weekly_rent": 550.0,
    "photo": [],
    "bedrooms": 2,
    "bathrooms": 1,
    "parking_spaces": 1,
    "property_type": "House"
  },
  {
    "street": "3/3 Koona Street",
    "suburb": "ALBION PARK RAIL",
    "state": "NSW",
    "postcode": "2527",
    "weekly_rent": 550.0,
    "photo": [],
    "bedrooms": 2,
    "bathrooms": 1,
    "parking_spaces": 1,
    "property_type": "Apartment / Unit / Flat"
  },
  {
    "street": "4/3 Koona Street",
    "suburb": "ALBION PARK RAIL",
    "state": "NSW",
    "postcode": "2527",
    "weekly_rent": 550.0,
    "photo": [],
    "bedrooms": 2,
    "bathrooms": 1,
    "parking_spaces": 1,
    "property_type": "Apartment / Unit / Flat"
  },
  {
    "street": "9/26 Keira Street",
    "suburb": "WOLLONGONG",
    "state": "NSW",
    "postcode": "2500",
    "weekly_rent": 465.0,
    "photo": [],
    "bedrooms": 2,
    "bathrooms": 1,
    "parking_spaces": 1,
    "property_type": "Apartment / Unit / Flat"
  },
  {
    "street": "5/19 Blacket Street",
    "suburb": "NORTH WOLLONGONG",
    "state": "NSW",
    "postcode": "2500",
    "weekly_rent": 685.0,
    "photo": [],
    "bedrooms": 2,
    "bathrooms": 1,
    "parking_spaces": 1,
    "property_type": "Apartment / Unit / Flat"
  },
  {
    "street": "67 Gladstone Ave",
    "suburb": "WOLLONGONG",
    "state": "NSW",
    "postcode": "2500",
    "weekly_rent": 580.0,
    "photo": [],
    "bedrooms": 3,
    "bathrooms": 1,
    "parking_spaces": 2,
    "property_type": "House"
  },
  {
    "street": "2/128 Campbell Street",
    "suburb": "WOONONA",
    "state": "NSW",
    "postcode": "2517",
    "weekly_rent": 750.0,
    "photo": [],
    "bedrooms": 3,
    "bathrooms": 2,
    "parking_spaces": 2,
    "property_type": "Townhouse"
  },
  {
    "street": "19/46-48 Keira Street",
    "suburb": "WOLLONGONG",
    "state": "NSW",
    "postcode": "2500",
    "weekly_rent": 470.0,
    "photo": [],
    "bedrooms": 2,
    "bathrooms": 1,
    "parking_spaces": 1,
    "property_type": "Apartment / Unit / Flat"
  },
  {
    "street": "7 Wallis Close",
    "suburb": "FLINDERS",
    "state": "NSW",
    "postcode": "2529",
    "weekly_rent": 950.0,
    "photo": [],
    "bedrooms": 5,
    "bathrooms": 3,
    "parking_spaces": 2,
    "property_type": "House"
  },
  {
    "street": "37 Lucinda Street",
    "suburb": "GWYNNEVILLE",
    "state": "NSW",
    "postcode": "2500",
    "weekly_rent": 680.0,
    "photo": [],
    "bedrooms": 3,
    "bathrooms": 2,
    "parking_spaces": 1,
    "property_type": "House"
  },
  {
    "street": "13 Robertson Street",
    "suburb": "SHELLHARBOUR",
    "state": "NSW",
    "postcode": "2529",
    "weekly_rent": 750.0,
    "photo": [],
    "bedrooms": 3,
    "bathrooms": 1,
    "parking_spaces": 1,
    "property_type": "House"
  },
  {
    "street": "2/12 Catherine Street",
    "suburb": "GWYNNEVILLE",
    "state": "NSW",
    "postcode": "2500",
    "weekly_rent": 430.0,
    "photo": [],
    "bedrooms": 2,
    "bathrooms": 1,
    "parking_spaces": 1,
    "property_type": "Apartment / Unit / Flat"
  },
  {
    "street": "45 Staff Road",
    "suburb": "CORDEAUX HEIGHTS",
    "state": "NSW",
    "postcode": "2526",
    "weekly_rent": 600.0,
    "photo": [],
    "bedrooms": 3,
    "bathrooms": 1,
    "parking_spaces": 1,
    "property_type": "House"
  },
  {
    "street": "175 Corrimal Street",
    "suburb": "WOLLONGONG",
    "state": "NSW",
    "postcode": "2500",
    "weekly_rent": 750.0,
    "photo": [],
    "bedrooms": 3,
    "bathrooms": 1,
    "parking_spaces": 2,
    "property_type": "House"
  },
  {
    "street": "24 Ryan Street",
    "suburb": "BALGOWNIE",
    "state": "NSW",
    "postcode": "2519",
    "weekly_rent": 785.0,
    "photo": [],
    "bedrooms": 3,
    "bathrooms": 2,
    "parking_spaces": 1,
    "property_type": "House"
  },
  {
    "street": "175 Northcliffe Drive",
    "suburb": "BERKELEY",
    "state": "NSW",
    "postcode": "2506",
    "weekly_rent": 580.0,
    "photo": [],
    "bedrooms": 3,
    "bathrooms": 1,
    "parking_spaces": 1,
    "property_type": "House"
  },
  {
    "street": "1/3 Koona Street",
    "suburb": "ALBION PARK RAIL",
    "state": "NSW",
    "postcode": "2527",
    "weekly_rent": 550.0,
    "photo": [],
    "bedrooms": 2,
    "bathrooms": 1,
    "parking_spaces": 1,
    "property_type": "Apartment / Unit / Flat"
  },
  {
    "street": "16 Ponsford Avenue",
    "suburb": "WARILLA",
    "state": "NSW",
    "postcode": "2528",
    "weekly_rent": 550.0,
    "photo": [],
    "bedrooms": 3,
    "bathrooms": 1,
    "parking_spaces": 1,
    "property_type": "House"
  },
  {
    "street": "1/15 Lagoon Street",
    "suburb": "BARRACK HEIGHTS",
    "state": "NSW",
    "postcode": "2528",
    "weekly_rent": 450.0,
    "photo": [],
    "bedrooms": 2,
    "bathrooms": 1,
    "parking_spaces": 1,
    "property_type": "Apartment / Unit / Flat"
  },
  {
    "street": "56a Gilmore Street",
    "suburb": "WEST WOLLONGONG",
    "state": "NSW",
    "postcode": "2500",
    "weekly_rent": 480.0,
    "photo": [],
    "bedrooms": 2,
    "bathrooms": 1,
    "parking_spaces": 0,
    "property_type": "Apartment / Unit / Flat"
  },
  {
    "street": "5/14 Keira Street",
    "suburb": "WOLLONGONG",
    "state": "NSW",
    "postcode": "2500",
    "weekly_rent": 420.0,
    "photo": [
      "https://rimh2.domainstatic.com.au/up35eOtyxhg34x5zJEiqvrMsv9Y=/660x440/filters:format(jpeg):quality(80)/17365538_1_1_241230_120123-w799-h596"
    ],
    "bedrooms": 2,
    "bathrooms": 1,
    "parking_spaces": 1,
    "property_type": "Apartment / Unit / Flat"
  },
  {
    "street": "14 Hilltop Avenue",
    "suburb": "WOLLONGONG",
    "state": "NSW",
    "postcode": "2500",
    "weekly_rent": 700.0,
    "photo": [],
    "bedrooms": 2,
    "bathrooms": 1,
    "parking_spaces": 1,
    "property_type": "House"
  },
  {
    "street": "1/27 Thompson Street",
    "suburb": "WOONONA",
    "state": "NSW",
    "postcode": "2517",
    "weekly_rent": 710.0,
    "photo": [],
    "bedrooms": 3,
    "bathrooms": 1,
    "parking_spaces": 2,
    "property_type": "Villa"
  },
  {
    "street": "4/18 Addison Street",
    "suburb": "SHELLHARBOUR",
    "state": "NSW",
    "postcode": "2529",
    "weekly_rent": 600.0,
    "photo": [],
    "bedrooms": 3,
    "bathrooms": 1,
    "parking_spaces": 1,
    "property_type": "Townhouse"
  },
  {
    "street": "4/37 Reddall Parade",
    "suburb": "LAKE ILLAWARRA",
    "state": "NSW",
    "postcode": "2528",
    "weekly_rent": 900.0,
    "photo": [],
    "bedrooms": 3,
    "bathrooms": 1,
    "parking_spaces": 1,
    "property_type": "Apartment / Unit / Flat"
  },
  {
    "street": "37 Panorama Drive",
    "suburb": "FARMBOROUGH HEIGHTS",
    "state": "NSW",
    "postcode": "2526",
    "weekly_rent": 630.0,
    "photo": [],
    "bedrooms": 3,
    "bathrooms": 2,
    "parking_spaces": 2,
    "property_type": "House"
  },
  {
    "street": "2/29 Kenny Street",
    "suburb": "WOLLONGONG",
    "state": "NSW",
    "postcode": "2500",
    "weekly_rent": 540.0,
    "photo": [],
    "bedrooms": 2,
    "bathrooms": 1,
    "parking_spaces": 1,
    "property_type": "Apartment / Unit / Flat"
  },
  {
    "street": "10/2 Forestview Way",
    "suburb": "WOONONA",
    "state": "NSW",
    "postcode": "2517",
    "weekly_rent": 750.0,
    "photo": [],
    "bedrooms": 3,
    "bathrooms": 2,
    "parking_spaces": 2,
    "property_type": "Apartment / Unit / Flat"
  },
  {
    "street": "3/5B Cockatiel Court",
    "suburb": "BLACKBUTT",
    "state": "NSW",
    "postcode": "2529",
    "weekly_rent": 760.0,
    "photo": [],
    "bedrooms": 3,
    "bathrooms": 2,
    "parking_spaces": 2,
    "property_type": "Townhouse"
  },
  {
    "street": "38/4 Bank Street",
    "suburb": "WOLLONGONG",
    "state": "NSW",
    "postcode": "2500",
    "weekly_rent": 750.0,
    "photo": [],
    "bedrooms": 2,
    "bathrooms": 2,
    "parking_spaces": 1,
    "property_type": "Apartment / Unit / Flat"
  },
  {
    "street": "1A Scenic Place",
    "suburb": "BERKELEY",
    "state": "NSW",
    "postcode": "2506",
    "weekly_rent": 450.0,
    "photo": [],
    "bedrooms": 2,
    "bathrooms": 1,
    "parking_spaces": 1,
    "property_type": "Apartment / Unit / Flat"
  },
  {
    "street": "7 Delta Place",
    "suburb": "ALBION PARK RAIL",
    "state": "NSW",
    "postcode": "2527",
    "weekly_rent": 0.0,
    "photo": [],
    "bedrooms": 1,
    "bathrooms": 1,
    "parking_spaces": 1,
    "property_type": "House"
  },
  {
    "street": "1/149 Mount Keira",
    "suburb": "MOUNT KEIRA",
    "state": "NSW",
    "postcode": "2500",
    "weekly_rent": 420.0,
    "photo": [],
    "bedrooms": 1,
    "bathrooms": 1,
    "parking_spaces": 0,
    "property_type": "Apartment / Unit / Flat"
  },
  {
    "street": "1/69-71 Wentworth Street",
    "suburb": "PORT KEMBLA",
    "state": "NSW",
    "postcode": "2505",
    "weekly_rent": 690.0,
    "photo": [],
    "bedrooms": 5,
    "bathrooms": 1,
    "parking_spaces": 0,
    "property_type": "Apartment / Unit / Flat"
  },
  {
    "street": "4/74 Darcy Road",
    "suburb": "PORT KEMBLA",
    "state": "NSW",
    "postcode": "2505",
    "weekly_rent": 460.0,
    "photo": [],
    "bedrooms": 2,
    "bathrooms": 1,
    "parking_spaces": 1,
    "property_type": "Apartment / Unit / Flat"
  },
  {
    "street": "1/31 Wattle Road",
    "suburb": "FLINDERS",
    "state": "NSW",
    "postcode": "2529",
    "weekly_rent": 600.0,
    "photo": [],
    "bedrooms": 2,
    "bathrooms": 1,
    "parking_spaces": 1,
    "property_type": "Villa"
  },
  {
    "street": "74/214-220 Princes Highway",
    "suburb": "FAIRY MEADOW",
    "state": "NSW",
    "postcode": "2519",
    "weekly_rent": 460.0,
    "photo": [],
    "bedrooms": 1,
    "bathrooms": 1,
    "parking_spaces": 1,
    "property_type": "Apartment / Unit / Flat"
  },
  {
    "street": "36 Paul Circuit",
    "suburb": "TULLIMBAR",
    "state": "NSW",
    "postcode": "2527",
    "weekly_rent": 780.0,
    "photo": [],
    "bedrooms": 4,
    "bathrooms": 2,
    "parking_spaces": 2,
    "property_type": "House"
  },
  {
    "street": "6 Peninsula Avenue",
    "suburb": "HAYWARDS BAY",
    "state": "NSW",
    "postcode": "2530",
    "weekly_rent": 820.0,
    "photo": [],
    "bedrooms": 4,
    "bathrooms": 2,
    "parking_spaces": 2,
    "property_type": "House"
  },
  {
    "street": "206/15 Railway Parade",
    "suburb": "WOLLONGONG",
    "state": "NSW",
    "postcode": "2500",
    "weekly_rent": 750.0,
    "photo": [],
    "bedrooms": 2,
    "bathrooms": 2,
    "parking_spaces": 1,
    "property_type": "Apartment / Unit / Flat"
  },
  {
    "street": "83 Hillside Drive",
    "suburb": "ALBION PARK",
    "state": "NSW",
    "postcode": "2527",
    "weekly_rent": 680.0,
    "photo": [],
    "bedrooms": 4,
    "bathrooms": 1,
    "parking_spaces": 1,
    "property_type": "House"
  },
  {
    "street": "22 Bowral Crescent",
    "suburb": "TULLIMBAR",
    "state": "NSW",
    "postcode": "2527",
    "weekly_rent": 800.0,
    "photo": [],
    "bedrooms": 4,
    "bathrooms": 2,
    "parking_spaces": 2,
    "property_type": "House"
  },
  {
    "street": "12 Blueberry Place",
    "suburb": "CORDEAUX HEIGHTS",
    "state": "NSW",
    "postcode": "2526",
    "weekly_rent": 850.0,
    "photo": [],
    "bedrooms": 4,
    "bathrooms": 2,
    "parking_spaces": 4,
    "property_type": "House"
  },
  {
    "street": "2 Hurt Street",
    "suburb": "WEST WOLLONGONG",
    "state": "NSW",
    "postcode": "2500",
    "weekly_rent": 750.0,
    "photo": [],
    "bedrooms": 3,
    "bathrooms": 1,
    "parking_spaces": 1,
    "property_type": "House"
  },
  {
    "street": "65 Railway Street",
    "suburb": "CORRIMAL",
    "state": "NSW",
    "postcode": "2518",
    "weekly_rent": 700.0,
    "photo": [],
    "bedrooms": 3,
    "bathrooms": 1,
    "parking_spaces": 1,
    "property_type": "House"
  },
  {
    "street": "58A Denise St",
    "suburb": "LAKE HEIGHTS",
    "state": "NSW",
    "postcode": "2502",
    "weekly_rent": 460.0,
    "photo": [],
    "bedrooms": 2,
    "bathrooms": 1,
    "parking_spaces": 1,
    "property_type": "Apartment / Unit / Flat"
  },
  {
    "street": "32 The Promontory Drive",
    "suburb": "SHELL COVE",
    "state": "NSW",
    "postcode": "2529",
    "weekly_rent": 860.0,
    "photo": [
      "https://rimh2.domainstatic.com.au/3TKzvkmNt-xh0nN1yVLy_1JndSI=/660x440/filters:format(jpeg):quality(80)/17376401_1_1_250107_043146-w4032-h3024"
    ],
    "bedrooms": 4,
    "bathrooms": 3,
    "parking_spaces": 2,
    "property_type": "House"
  },
  {
    "street": "18a London Street",
    "suburb": "BERKELEY",
    "state": "NSW",
    "postcode": "2506",
    "weekly_rent": 625.0,
    "photo": [],
    "bedrooms": 2,
    "bathrooms": 1,
    "parking_spaces": 1,
    "property_type": "Villa"
  },
  {
    "street": "604/14 Beatson Street",
    "suburb": "WOLLONGONG",
    "state": "NSW",
    "postcode": "2500",
    "weekly_rent": 750.0,
    "photo": [],
    "bedrooms": 2,
    "bathrooms": 2,
    "parking_spaces": 1,
    "property_type": "Apartment / Unit / Flat"
  },
  {
    "street": "705/15 Railway Parade",
    "suburb": "WOLLONGONG",
    "state": "NSW",
    "postcode": "2500",
    "weekly_rent": 720.0,
    "photo": [],
    "bedrooms": 2,
    "bathrooms": 2,
    "parking_spaces": 1,
    "property_type": "Apartment / Unit / Flat"
  },
  {
    "street": "154/214 Princes Highway",
    "suburb": "FAIRY MEADOW",
    "state": "NSW",
    "postcode": "2519",
    "weekly_rent": 490.0,
    "photo": [],
    "bedrooms": 1,
    "bathrooms": 1,
    "parking_spaces": 1,
    "property_type": "Apartment / Unit / Flat"
  },
  {
    "street": "5A Waitangi Street",
    "suburb": "GWYNNEVILLE",
    "state": "NSW",
    "postcode": "2500",
    "weekly_rent": 1400.0,
    "photo": [],
    "bedrooms": 4,
    "bathrooms": 2,
    "parking_spaces": 2,
    "property_type": "Semi-detached"
  },
  {
    "street": "10 Redman Avenue",
    "suburb": "THIRROUL",
    "state": "NSW",
    "postcode": "2515",
    "weekly_rent": 1400.0,
    "photo": [],
    "bedrooms": 4,
    "bathrooms": 3,
    "parking_spaces": 0,
    "property_type": "House"
  },
  {
    "street": "24b Euodia Street",
    "suburb": "HORSLEY",
    "state": "NSW",
    "postcode": "2530",
    "weekly_rent": 750.0,
    "photo": [],
    "bedrooms": 3,
    "bathrooms": 2,
    "parking_spaces": 1,
    "property_type": "Duplex"
  },
  {
    "street": "65 Cawley Street",
    "suburb": "BELLAMBI",
    "state": "NSW",
    "postcode": "2518",
    "weekly_rent": 680.0,
    "photo": [],
    "bedrooms": 3,
    "bathrooms": 1,
    "parking_spaces": 1,
    "property_type": "House"
  },
  {
    "street": "84B Campbell Street",
    "suburb": "WOLLONGONG",
    "state": "NSW",
    "postcode": "2500",
    "weekly_rent": 1200.0,
    "photo": [],
    "bedrooms": 3,
    "bathrooms": 2,
    "parking_spaces": 6,
    "property_type": "Duplex"
  },
  {
    "street": "9 Barrack Avenue",
    "suburb": "BARRACK HEIGHTS",
    "state": "NSW",
    "postcode": "2528",
    "weekly_rent": 560.0,
    "photo": [],
    "bedrooms": 2,
    "bathrooms": 1,
    "parking_spaces": 1,
    "property_type": "House"
  },
  {
    "street": "1105/41 Crown Street",
    "suburb": "WOLLONGONG",
    "state": "NSW",
    "postcode": "2500",
    "weekly_rent": 600.0,
    "photo": [],
    "bedrooms": 1,
    "bathrooms": 1,
    "parking_spaces": 1,
    "property_type": "Apartment / Unit / Flat"
  },
  {
    "street": "40 Norman Street",
    "suburb": "MANGERTON",
    "state": "NSW",
    "postcode": "2500",
    "weekly_rent": 600.0,
    "photo": [],
    "bedrooms": 3,
    "bathrooms": 1,
    "parking_spaces": 2,
    "property_type": "House"
  },
  {
    "street": "17A Galactic Drive",
    "suburb": "DUNMORE",
    "state": "NSW",
    "postcode": "2529",
    "weekly_rent": 820.0,
    "photo": [],
    "bedrooms": 3,
    "bathrooms": 2,
    "parking_spaces": 2,
    "property_type": "House"
  },
  {
    "street": "27 Riversdale Avenue",
    "suburb": "KIAMA DOWNS",
    "state": "NSW",
    "postcode": "2533",
    "weekly_rent": 1100.0,
    "photo": [
      "https://rimh2.domainstatic.com.au/rjTAddUW2CDrf7AziIwIoNbhPV8=/660x440/filters:format(jpeg):quality(80)/16271087_1_1_230111_045758-w4500-h4500"
    ],
    "bedrooms": 5,
    "bathrooms": 2,
    "parking_spaces": 0,
    "property_type": "House"
  },
  {
    "street": "17 Galactic Drive",
    "suburb": "DUNMORE",
    "state": "NSW",
    "postcode": "2529",
    "weekly_rent": 790.0,
    "photo": [],
    "bedrooms": 3,
    "bathrooms": 2,
    "parking_spaces": 1,
    "property_type": "House"
  },
  {
    "street": "4/18A Falcon Street",
    "suburb": "SHELLHARBOUR CITY CENTRE",
    "state": "NSW",
    "postcode": "2529",
    "weekly_rent": 820.0,
    "photo": [],
    "bedrooms": 3,
    "bathrooms": 2,
    "parking_spaces": 2,
    "property_type": "Townhouse"
  },
  {
    "street": "12/25 Carters Lane",
    "suburb": "FAIRY MEADOW",
    "state": "NSW",
    "postcode": "2519",
    "weekly_rent": 750.0,
    "photo": [],
    "bedrooms": 3,
    "bathrooms": 2,
    "parking_spaces": 2,
    "property_type": "Apartment / Unit / Flat"
  },
  {
    "street": "38 Parklands Drive",
    "suburb": "SHELLHARBOUR",
    "state": "NSW",
    "postcode": "2529",
    "weekly_rent": 750.0,
    "photo": [],
    "bedrooms": 3,
    "bathrooms": 1,
    "parking_spaces": 1,
    "property_type": "House"
  },
  {
    "street": "140 Lakelands Drive",
    "suburb": "DAPTO",
    "state": "NSW",
    "postcode": "2530",
    "weekly_rent": 590.0,
    "photo": [],
    "bedrooms": 3,
    "bathrooms": 1,
    "parking_spaces": 2,
    "property_type": "House"
  },
  {
    "street": "4/10 Burelli Street",
    "suburb": "WOLLONGONG",
    "state": "NSW",
    "postcode": "2500",
    "weekly_rent": 600.0,
    "photo": [],
    "bedrooms": 2,
    "bathrooms": 1,
    "parking_spaces": 1,
    "property_type": "Apartment / Unit / Flat"
  },
  {
    "street": "G01/16 Smith Street",
    "suburb": "WOLLONGONG",
    "state": "NSW",
    "postcode": "2500",
    "weekly_rent": 2000.0,
    "photo": [],
    "bedrooms": 3,
    "bathrooms": 3,
    "parking_spaces": 2,
    "property_type": "Apartment / Unit / Flat"
  },
  {
    "street": "7/59 Rowland Avenue",
    "suburb": "WOLLONGONG",
    "state": "NSW",
    "postcode": "2500",
    "weekly_rent": 770.0,
    "photo": [],
    "bedrooms": 3,
    "bathrooms": 2,
    "parking_spaces": 2,
    "property_type": "Townhouse"
  },
  {
    "street": "209/14 Auburn St",
    "suburb": "WOLLONGONG",
    "state": "NSW",
    "postcode": "2500",
    "weekly_rent": 800.0,
    "photo": [],
    "bedrooms": 3,
    "bathrooms": 2,
    "parking_spaces": 1,
    "property_type": "Apartment / Unit / Flat"
  },
  {
    "street": "2/11 Foley Street",
    "suburb": "GWYNNEVILLE",
    "state": "NSW",
    "postcode": "2500",
    "weekly_rent": 920.0,
    "photo": [],
    "bedrooms": 5,
    "bathrooms": 2,
    "parking_spaces": 4,
    "property_type": "Villa"
  },
  {
    "street": "34/1-5 Mount Keira Rd",
    "suburb": "WEST WOLLONGONG",
    "state": "NSW",
    "postcode": "2500",
    "weekly_rent": 290.0,
    "photo": [],
    "bedrooms": 1,
    "bathrooms": 1,
    "parking_spaces": 1,
    "property_type": "Apartment / Unit / Flat"
  }
]